{
"type": "FeatureCollection",
"name": "bazar arse zone ",
"crs": { "type": "name", "properties": { "name": "urn:ogc:def:crs:EPSG::32638" } },
"features": [
{ "type": "Feature", "properties": { "Layer": "arse", "PaperSpace": null, "SubClasses": "AcDbEntity:AcDbHatch", "Linetype": null, "EntityHandle": "69", "Text": "SOLID" }, "geometry": { "type": "Polygon", "coordinates": [ [ [ 613858.37900732178241, 4216046.600198293104768 ], [ 613857.66544251004234, 4216048.197407299652696 ], [ 613854.250662413542159, 4216049.337265578098595 ], [ 613848.274797244695947, 4216051.332017562352121 ], [ 613844.053749625221826, 4216052.741009042598307 ], [ 613838.789296976407059, 4216054.498290557414293 ], [ 613837.95781018724665, 4216054.775841984897852 ], [ 613834.09437731304206, 4216056.004255592823029 ], [ 613829.163586413138546, 4216058.440913363359869 ], [ 613825.998596175340936, 4216053.187203197740018 ], [ 613818.851729044108652, 4216038.481939165852964 ], [ 613815.424216057988815, 4216040.17571940086782 ], [ 613814.371389481937513, 4216038.045232403092086 ], [ 613811.862645883578807, 4216039.28498272318393 ], [ 613808.113846668624319, 4216031.698958431370556 ], [ 613805.396222076495178, 4216033.041931844316423 ], [ 613801.558954219333827, 4216025.713514926843345 ], [ 613804.606674652080983, 4216021.750393887981772 ], [ 613803.008246485842392, 4216012.857447822578251 ], [ 613802.771372479968704, 4216005.10874689836055 ], [ 613801.373345853644423, 4216005.288723659701645 ], [ 613800.852400873904116, 4216001.242118125781417 ], [ 613800.306902578915469, 4216001.312343553639948 ], [ 613799.847245243610814, 4215997.741809261031449 ], [ 613799.152974686934613, 4215997.831187077797949 ], [ 613797.888917014352046, 4215988.01221777126193 ], [ 613805.021091900300235, 4215984.674242126755416 ], [ 613808.455514715285972, 4215984.232107277959585 ], [ 613814.665784599725157, 4215987.334501577541232 ], [ 613817.225020432262681, 4216004.959195820614696 ], [ 613820.253412814345211, 4216004.598457241430879 ], [ 613820.366988135152496, 4216005.380616618320346 ], [ 613824.369007753324695, 4216005.453571623191237 ], [ 613824.670080111944117, 4216007.526967203244567 ], [ 613822.111167229246348, 4216008.838177984580398 ], [ 613823.093318936531432, 4216011.78927178774029 ], [ 613832.93653084745165, 4216008.170069257728755 ], [ 613833.157044602208771, 4216008.558265113271773 ], [ 613833.688679025741294, 4216009.634074036963284 ], [ 613856.657199544482864, 4215998.283679104410112 ], [ 613869.062317348551005, 4216024.077304479666054 ], [ 613859.902271932223812, 4216028.60394053068012 ], [ 613864.310407357756048, 4216037.524189525283873 ], [ 613860.634726868825965, 4216039.340607135556638 ], [ 613858.37900732178241, 4216046.600198293104768 ] ] ] } },
{ "type": "Feature", "properties": { "Layer": "arse", "PaperSpace": null, "SubClasses": "AcDbEntity:AcDbHatch", "Linetype": null, "EntityHandle": "6D", "Text": "SOLID" }, "geometry": { "type": "Polygon", "coordinates": [ [ [ 612993.879307177383453, 4215449.706764034926891 ], [ 612993.878209065063857, 4215449.705991866998374 ], [ 612987.931478410493582, 4215449.948705708608031 ], [ 612984.420511660980992, 4215449.558605451136827 ], [ 612985.641795421834104, 4215457.430237178690732 ], [ 612967.896428661653772, 4215459.344916701316833 ], [ 612968.744610617868602, 4215463.413495227694511 ], [ 612946.110252300277352, 4215465.623364543542266 ], [ 612931.570779735455289, 4215465.697297779843211 ], [ 612930.431692154728808, 4215464.504957243800163 ], [ 612927.657343806233257, 4215464.126815419644117 ], [ 612910.539705169619992, 4215457.109946637414396 ], [ 612910.571556252078153, 4215456.023198726586998 ], [ 612911.478687877533957, 4215452.93367662280798 ], [ 612911.797533124452457, 4215444.565719477832317 ], [ 612906.161413991125301, 4215443.217438496649265 ], [ 612899.635124963475391, 4215442.382439221255481 ], [ 612899.786712164874189, 4215445.496655978262424 ], [ 612896.679316484369338, 4215445.245347812771797 ], [ 612897.013510166201741, 4215443.442154229618609 ], [ 612891.464126079226844, 4215443.001783423125744 ], [ 612891.405114757828414, 4215444.062866717576981 ], [ 612887.893795098178089, 4215443.516541783697903 ], [ 612888.286228713928722, 4215441.49128154758364 ], [ 612877.635205206461251, 4215438.4893883112818 ], [ 612877.376778947305866, 4215439.734298182651401 ], [ 612871.913728286745027, 4215439.947763181291521 ], [ 612871.886634491500445, 4215438.951863043010235 ], [ 612866.9998227780452, 4215439.343191963620484 ], [ 612862.744127212557942, 4215440.651162197813392 ], [ 612862.800018155365251, 4215444.807133041322231 ], [ 612860.822830703691579, 4215444.768275197595358 ], [ 612859.630830263253301, 4215445.097275320440531 ], [ 612857.61565544269979, 4215449.155398403294384 ], [ 612860.054906753823161, 4215452.968811839818954 ], [ 612868.668681946466677, 4215453.272459611296654 ], [ 612868.558725593495183, 4215455.669142015278339 ], [ 612871.22508952463977, 4215455.318488633260131 ], [ 612871.423330793972127, 4215453.330933191813529 ], [ 612875.739647669019178, 4215453.999419268220663 ], [ 612880.373883973690681, 4215454.14862475823611 ], [ 612878.809413129347377, 4215459.62560703791678 ], [ 612883.399105631979182, 4215460.241851736791432 ], [ 612889.782785678631626, 4215459.038169795647264 ], [ 612889.436902990448289, 4215461.329329717904329 ], [ 612895.349578472203575, 4215461.721166841685772 ], [ 612897.303623212850653, 4215461.491838070563972 ], [ 612896.696262855664827, 4215466.165202631615102 ], [ 612902.463176649645902, 4215467.032605069689453 ], [ 612903.50053180672694, 4215469.135915680788457 ], [ 612907.403617052943446, 4215469.226026781834662 ], [ 612907.64604357467033, 4215468.048904596827924 ], [ 612909.726716627250426, 4215468.198046632111073 ], [ 612909.680165332392789, 4215468.512694731354713 ], [ 612913.293957318994217, 4215468.411976216360927 ], [ 612913.009326411178336, 4215470.096757096238434 ], [ 612919.094821240403689, 4215471.565849483944476 ], [ 612920.932710620574653, 4215470.660386247560382 ], [ 612925.239566810196266, 4215470.92973312176764 ], [ 612925.828629430499859, 4215468.45933995116502 ], [ 612934.727565172477625, 4215470.65320413839072 ], [ 612943.607568451436237, 4215469.741203801706433 ], [ 612945.547941153170541, 4215472.095703733153641 ], [ 612948.139514907845296, 4215481.319749816320837 ], [ 612960.371650974731892, 4215479.122740870341659 ], [ 612969.054459924693219, 4215477.984279368072748 ], [ 612971.526578759541735, 4215478.628207076340914 ], [ 612973.90007001964841, 4215478.136659751646221 ], [ 612974.148567285155877, 4215479.68445491604507 ], [ 612980.63058212143369, 4215478.661207089200616 ], [ 612980.600868559326045, 4215479.39319833368063 ], [ 612996.473884340026416, 4215478.282638670876622 ], [ 613041.659422155353241, 4215465.098584313876927 ], [ 613048.749976429040544, 4215461.075814832933247 ], [ 613060.009980586823076, 4215464.52081610634923 ], [ 613069.48498408542946, 4215462.241815264336765 ], [ 613070.190984346205369, 4215463.171815605834126 ], [ 613082.645988945383579, 4215459.989814433269203 ], [ 613082.645988945383579, 4215459.389814211986959 ], [ 613085.132989863399416, 4215459.053814086131752 ], [ 613085.248989906394854, 4215460.151814490556717 ], [ 613089.037991305580363, 4215459.396814214996994 ], [ 613089.807991589652374, 4215462.781815462745726 ], [ 613103.046996478573419, 4215459.891814394854009 ], [ 613103.603996683959849, 4215463.784815832972527 ], [ 613113.684000405948609, 4215462.336815297603607 ], [ 613117.65500397910364, 4215461.377814944833517 ], [ 613125.355004715500399, 4215460.266814534552395 ], [ 613127.779005610500462, 4215465.829816588200629 ], [ 613129.37300586362835, 4215465.595156072638929 ], [ 613134.565008116071112, 4215464.830816221423447 ], [ 613138.107009424013086, 4215464.278816017322242 ], [ 613138.045009401161224, 4215463.429815703071654 ], [ 613143.12801127822604, 4215462.204815251752734 ], [ 613144.823011904023588, 4215468.680817641317844 ], [ 613146.141012390726246, 4215468.601817611604929 ], [ 613146.760012619313784, 4215471.923818839713931 ], [ 613149.207013522856869, 4215475.127820020541549 ], [ 613149.440013608895242, 4215476.714820605702698 ], [ 613150.294013924198225, 4215480.402821968309581 ], [ 613149.725013713934459, 4215482.510822748765349 ], [ 613149.838013755739667, 4215483.40982307959348 ], [ 613164.382537341094576, 4215478.679739128798246 ], [ 613172.193613707553595, 4215508.127048008143902 ], [ 613126.180860354099423, 4215528.956920396536589 ], [ 613127.468002400244586, 4215532.067386336624622 ], [ 613126.720005219336599, 4215541.625844577327371 ], [ 613127.188005392206833, 4215555.547849715687335 ], [ 613113.896000484353863, 4215556.141849937848747 ], [ 613113.445000317879021, 4215552.647848648019135 ], [ 613096.583994092652574, 4215555.494849706068635 ], [ 613097.478994422242977, 4215561.981852092780173 ], [ 613099.326995104784146, 4215575.505857085809112 ], [ 613103.471996635315008, 4215575.166856961324811 ], [ 613115.144000945147127, 4215573.318856279365718 ], [ 613116.58979659283068, 4215584.692951681092381 ], [ 613121.51017346244771, 4215601.777866143733263 ], [ 613121.82017346250359, 4215602.473866143263876 ], [ 613126.408958377549425, 4215601.706423044204712 ], [ 613126.086173462448642, 4215600.111866142600775 ], [ 613140.123909824062139, 4215596.603648377582431 ], [ 613148.208958377828822, 4215617.980585941113532 ], [ 613147.853958377847448, 4215618.33542304392904 ], [ 613149.608106760773808, 4215623.199544481001794 ], [ 613170.940290877129883, 4215615.669858817942441 ], [ 613177.264958377694711, 4215642.626423045061529 ], [ 613216.701958377845585, 4215638.049423044547439 ], [ 613218.050958377774805, 4215648.231423044577241 ], [ 613229.640958377742209, 4215647.462423046119511 ], [ 613230.334958377759904, 4215647.051423044875264 ], [ 613228.505958378082141, 4215671.786423048004508 ], [ 613224.389958377811126, 4215687.263417829759419 ], [ 613224.495958377956413, 4215691.39242304302752 ], [ 613226.446958377957344, 4215691.739423044957221 ], [ 613227.45195837772917, 4215694.787423045374453 ], [ 613228.701958377845585, 4215695.285423045046628 ], [ 613236.560665543889627, 4215691.061342395842075 ], [ 613247.358665543841198, 4215689.694342396222055 ], [ 613247.113665543845855, 4215692.49434239603579 ], [ 613245.915665543871, 4215693.946342396549881 ], [ 613250.729665544000454, 4215703.238342395983636 ], [ 613264.927665543742478, 4215701.66634239256382 ], [ 613267.195665543549694, 4215712.963342394679785 ], [ 613287.765198565204628, 4215711.936915042810142 ], [ 613287.06918965827208, 4215689.181506378576159 ], [ 613312.886553996009752, 4215687.784475597552955 ], [ 613318.438198565272614, 4215726.938915043137968 ], [ 613321.276198565261438, 4215751.033915044739842 ], [ 613327.023958377772942, 4215772.880423043854535 ], [ 613327.388958377763629, 4215782.230423044413328 ], [ 613321.545958377770148, 4215786.989423045888543 ], [ 613325.723958377842791, 4215804.782423043623567 ], [ 613319.825958377681673, 4215806.142423044890165 ], [ 613321.538958377554081, 4215813.489423044957221 ], [ 613322.900958377867937, 4215821.587423043325543 ], [ 613324.306958377826959, 4215825.435423046350479 ], [ 613324.913958377554081, 4215829.484423045068979 ], [ 613326.263958377763629, 4215829.182423045858741 ], [ 613328.325958377681673, 4215836.879423043690622 ], [ 613329.627958377706818, 4215838.477423045784235 ], [ 613330.426037451252341, 4215842.435093018226326 ], [ 613331.183958377689123, 4215842.225423043593764 ], [ 613332.74295837781392, 4215848.07242304366082 ], [ 613333.4949583777925, 4215848.971423044800758 ], [ 613334.050958377541974, 4215852.720423043705523 ], [ 613334.402958377846517, 4215854.320423043332994 ], [ 613334.706958377850242, 4215856.869423045776784 ], [ 613335.169958377955481, 4215864.918423045426607 ], [ 613334.17395837767981, 4215867.820423043332994 ], [ 613334.276958377799019, 4215869.370423044078052 ], [ 613335.381958377780393, 4215872.818423043936491 ], [ 613336.541958377696574, 4215879.166423045098782 ], [ 613337.39995837782044, 4215884.315423044376075 ], [ 613338.305958377779461, 4215888.763423043303192 ], [ 613338.707958377548493, 4215890.063423044979572 ], [ 613339.661958377691917, 4215892.211423044092953 ], [ 613341.220958377700299, 4215898.108423044905066 ], [ 613343.033958377782255, 4215906.505423044785857 ], [ 613337.486958377761766, 4215908.314423045143485 ], [ 613335.636958377785049, 4215908.617423043586314 ], [ 613335.385958377853967, 4215907.91842304635793 ], [ 613334.886958377785049, 4215908.019423044286668 ], [ 613335.993958377861418, 4215912.96742304507643 ], [ 613336.600958377821371, 4215917.066423043608665 ], [ 613335.550958377774805, 4215917.368423044681549 ], [ 613336.003958377754316, 4215919.017423044890165 ], [ 613337.514958377694711, 4215926.364423045888543 ], [ 613339.129958377685398, 4215935.61242304276675 ], [ 613415.76316042104736, 4215910.097220906056464 ], [ 613427.799860698869452, 4215951.504455608315766 ], [ 613233.408238537842408, 4216020.458488292060792 ], [ 613272.970544527866878, 4216129.335155055858195 ], [ 613279.274958377704024, 4216149.934423046186566 ], [ 613282.023958377772942, 4216149.229423043318093 ], [ 613283.027958377846517, 4216152.028423043899238 ], [ 613283.844366929144599, 4216151.728160918690264 ], [ 613285.836958377854899, 4216157.773423045873642 ], [ 613272.267958377837203, 4216164.096423044800758 ], [ 613274.968199075665325, 4216169.13642481341958 ], [ 613216.190958377788775, 4216197.255423043854535 ], [ 613204.194958377745934, 4216200.024423045106232 ], [ 613207.818958377814852, 4216215.518423045054078 ], [ 613207.269958377699368, 4216215.819423045031726 ], [ 613209.973231091164052, 4216225.623415873385966 ], [ 613207.889228924294002, 4216226.335405100136995 ], [ 613210.697958377655596, 4216234.014423044398427 ], [ 613218.2449583777925, 4216231.652423043735325 ], [ 613218.745958377956413, 4216232.601423044689 ], [ 613226.791958377696574, 4216229.989423044957221 ], [ 613226.444388139410876, 4216228.888135286979377 ], [ 613232.986958377645351, 4216226.979423043318093 ], [ 613245.228958377847448, 4216221.560423042625189 ], [ 613249.897324203164317, 4216219.0906115565449 ], [ 613253.571958377957344, 4216217.147423045709729 ], [ 613257.469958377536386, 4216215.541423045098782 ], [ 613260.916958377696574, 4216213.685423046350479 ], [ 613259.756028868141584, 4216211.65221403632313 ], [ 613272.85187593405135, 4216206.590790830552578 ], [ 613272.295182110508904, 4216203.770469590090215 ], [ 613288.837024998269044, 4216197.65952255576849 ], [ 613304.199447565013543, 4216191.784743417985737 ], [ 613325.983958377852105, 4216193.082423044368625 ], [ 613332.232958377571777, 4216192.473423046059906 ], [ 613337.181958377826959, 4216191.965423043817282 ], [ 613345.782958377851173, 4216192.552423045039177 ], [ 613350.049958377843723, 4216192.71642304584384 ], [ 613365.651958377682604, 4216193.472423045895994 ], [ 613376.802958377753384, 4216193.640423043631017 ], [ 613385.348958377842791, 4216192.516423045657575 ], [ 613388.039958377834409, 4216189.308423045091331 ], [ 613387.925958377774805, 4216184.20842304546386 ], [ 613388.674958377727307, 4216184.20842304546386 ], [ 613385.463958377717063, 4216180.165423044934869 ], [ 613377.261958377552219, 4216179.539423044770956 ], [ 613374.166239291895181, 4216179.040365456603467 ], [ 613375.047958377748728, 4216174.54542304482311 ], [ 613376.429958377731964, 4216168.041423045098782 ], [ 613377.975958377704956, 4216148.987423044629395 ], [ 613376.059561586240306, 4216148.595119236968458 ], [ 613376.908958377549425, 4216143.290423045866191 ], [ 613377.9369583777152, 4216135.387423045933247 ], [ 613378.32495837775059, 4216131.036423043347895 ], [ 613388.165958377532661, 4216128.007423045113683 ], [ 613385.290958377765492, 4216119.366423043422401 ], [ 613387.305958377779461, 4216118.614423044957221 ], [ 613382.526958377682604, 4216108.578423042781651 ], [ 613388.902958377846517, 4216105.905423043295741 ], [ 613390.001958377775736, 4216105.602423046715558 ], [ 613397.223958377726376, 4216103.310423043556511 ], [ 613397.122958377702162, 4216103.060423046350479 ], [ 613400.741261640097946, 4216101.742282018065453 ], [ 613400.416958377929404, 4216101.001423045061529 ], [ 613405.31395837769378, 4216099.787423042580485 ], [ 613441.56192302540876, 4216087.041784913279116 ], [ 613446.115698390640318, 4216099.330874107778072 ], [ 613462.369650784065016, 4216092.953767986036837 ], [ 613460.776958377682604, 4216088.971423045732081 ], [ 613458.645924717653543, 4216080.890349726192653 ], [ 613471.18004594463855, 4216077.073629408143461 ], [ 613487.137702731182799, 4216072.214420553296804 ], [ 613505.538962203310803, 4216066.611119007691741 ], [ 613505.422552856733091, 4216066.031207744963467 ], [ 613514.078788342885673, 4216062.578538120724261 ], [ 613513.144269802724011, 4216059.560028599575162 ], [ 613527.514013489242643, 4216054.914694420993328 ], [ 613548.422655484755524, 4216049.603148466907442 ], [ 613546.402335018268786, 4216043.083526058122516 ], [ 613552.205567350261845, 4216041.851780286058784 ], [ 613551.981950254645199, 4216041.106351645663381 ], [ 613560.62605215550866, 4216039.0911203334108 ], [ 613561.198296073940583, 4216040.940770061686635 ], [ 613568.684958377853036, 4216038.76442304532975 ], [ 613609.234114212333225, 4216000.207915043458343 ], [ 613621.994958377908915, 4215999.156423047184944 ], [ 613622.019752133637667, 4215997.743755331262946 ], [ 613623.93895837769378, 4215997.15142304636538 ], [ 613631.585958377807401, 4215996.029423044063151 ], [ 613636.681958377710544, 4215994.815423043444753 ], [ 613654.536958377691917, 4215996.364423045888543 ], [ 613654.133165449369699, 4215987.589043192565441 ], [ 613659.032633499242365, 4215986.304372748360038 ], [ 613661.011958377785049, 4215967.479423043318093 ], [ 613662.793958377791569, 4215950.877423043362796 ], [ 613668.570865460904315, 4215914.176369621418417 ], [ 613606.624356483225711, 4215932.217830208130181 ], [ 613605.238020399701782, 4215926.784066430293024 ], [ 613584.474308767705224, 4215929.607576335780323 ], [ 613580.589434769353829, 4215930.142138132825494 ], [ 613548.750699278549291, 4215927.440895018167794 ], [ 613509.834425757522695, 4215933.062627227976918 ], [ 613502.069552041008137, 4215896.07519734557718 ], [ 613500.542232625535689, 4215887.627414936199784 ], [ 613499.581760063301772, 4215882.148274259641767 ], [ 613530.081606362946332, 4215878.950354511849582 ], [ 613546.198845917126164, 4215878.289077392779291 ], [ 613575.598958377842791, 4215872.795423043891788 ], [ 613582.01493288972415, 4215866.651551303453743 ], [ 613574.104201562004164, 4215735.399570116773248 ], [ 613570.712769221048802, 4215677.465013862587512 ], [ 613568.574522040085867, 4215640.213449615985155 ], [ 613566.467604488600045, 4215597.283588006161153 ], [ 613562.966518446104601, 4215551.086643933318555 ], [ 613559.68473980599083, 4215490.462218220345676 ], [ 613577.482171662501059, 4215490.22182559594512 ], [ 613603.135514458175749, 4215491.213459067977965 ], [ 613603.461181255290285, 4215480.762822101823986 ], [ 613603.849851068109274, 4215476.74979205802083 ], [ 613604.127787200501189, 4215473.880091319791973 ], [ 613633.046994837117381, 4215472.280970955267549 ], [ 613636.330084747634828, 4215473.670410621911287 ], [ 613636.376029358478263, 4215475.056344036944211 ], [ 613643.843024314614013, 4215474.297807895578444 ], [ 613643.667194131878205, 4215472.564280266873538 ], [ 613649.996920625679195, 4215471.922261674888432 ], [ 613651.03546329040546, 4215482.161359280347824 ], [ 613666.859779525082558, 4215480.556312801316381 ], [ 613668.585204489645548, 4215497.657320228405297 ], [ 613679.626202883315273, 4215496.108052203431726 ], [ 613675.52490154991392, 4215468.420996684581041 ], [ 613678.191326081054285, 4215468.150543588213623 ], [ 613678.191326081054285, 4215467.557131730951369 ], [ 613681.201026942115277, 4215467.245755476877093 ], [ 613685.705213008215651, 4215467.080869723111391 ], [ 613688.288860974251293, 4215469.432178323157132 ], [ 613691.663285473943688, 4215469.089913414791226 ], [ 613691.999773746123537, 4215474.021910012699664 ], [ 613707.489889718475752, 4215472.711191588081419 ], [ 613706.968249612953514, 4215467.568288810551167 ], [ 613731.460431753075682, 4215466.202717738226056 ], [ 613730.485323947505094, 4215457.305474410764873 ], [ 613730.300996610429138, 4215452.93197022844106 ], [ 613729.773782936041243, 4215439.259376251138747 ], [ 613661.765029053320177, 4215446.294465658254921 ], [ 613660.238202220061794, 4215427.409517117775977 ], [ 613607.80443616467528, 4215432.001282869838178 ], [ 613607.793462569010444, 4215431.50963491294533 ], [ 613600.832644383073784, 4215432.367790230549872 ], [ 613599.681179859675467, 4215424.420801299624145 ], [ 613555.378310364787467, 4215427.530560249462724 ], [ 613551.084756640950218, 4215377.064032305963337 ], [ 613547.474016895634122, 4215333.443221139721572 ], [ 613544.262729921494611, 4215296.922414244152606 ], [ 613540.800805915496312, 4215296.982125933282077 ], [ 613514.930364752537571, 4215297.613363797776401 ], [ 613480.765404307632707, 4215301.417851468548179 ], [ 613451.464368767454289, 4215303.6357142329216 ], [ 613443.021033747354522, 4215303.942802924662828 ], [ 613436.191174621111713, 4215305.469716138206422 ], [ 613428.198203017702326, 4215306.265872002579272 ], [ 613395.668721627676859, 4215255.358781010843813 ], [ 613386.268039139220491, 4215239.295732437632978 ], [ 613374.49878656049259, 4215222.570815061219037 ], [ 613362.269792510545813, 4215201.674999714829028 ], [ 613356.223204575479031, 4215191.027462285943329 ], [ 613340.908084308262914, 4215199.604718285612762 ], [ 613342.148084765998647, 4215202.336719293147326 ], [ 613351.470582201145589, 4215217.605071296915412 ], [ 613365.531756175332703, 4215241.678408665582538 ], [ 613369.631035692524165, 4215248.696552314795554 ], [ 613371.435178159270436, 4215251.785322166979313 ], [ 613378.096823744825087, 4215263.190347232855856 ], [ 613401.000168825732544, 4215308.387058701366186 ], [ 613393.285247680032626, 4215309.063791185617447 ], [ 613393.285247680032626, 4215309.200275047682226 ], [ 613369.490394439781085, 4215310.789743366651237 ], [ 613359.762544629396871, 4215311.762190886773169 ], [ 613347.207195800030604, 4215312.438923372887075 ], [ 613347.183698579086922, 4215313.385780166834593 ], [ 613329.012513747671619, 4215314.474807656370103 ], [ 613381.426983096054755, 4215436.181448704563081 ], [ 613380.596747927716933, 4215446.753261225298047 ], [ 613381.442647911026143, 4215446.830033401027322 ], [ 613380.786583382170647, 4215455.861642324365675 ], [ 613366.694225049926899, 4215455.8180644325912 ], [ 613366.310437094653025, 4215451.515979346819222 ], [ 613362.503887168364599, 4215440.708163479343057 ], [ 613349.846717044943944, 4215412.478751232847571 ], [ 613324.712522165267728, 4215420.227053850889206 ], [ 613325.151136971544474, 4215421.236465751193464 ], [ 613313.270098170847632, 4215427.027899631299078 ], [ 613302.59810308017768, 4215430.301827279850841 ], [ 613300.815358197782189, 4215430.909759511239827 ], [ 613296.04199699300807, 4215432.878732721321285 ], [ 613287.081067331251688, 4215436.42457530181855 ], [ 613281.524628562154248, 4215419.865940296091139 ], [ 613246.631254242965952, 4215437.469515156932175 ], [ 613242.675888578640297, 4215423.044876929372549 ], [ 613241.618513599270955, 4215423.377556346356869 ], [ 613237.295024794759229, 4215410.425806465558708 ], [ 613236.770253508584574, 4215410.55376008991152 ], [ 613233.30832950246986, 4215399.652111566625535 ], [ 613228.194042688468471, 4215401.057792671024799 ], [ 613229.092043020413257, 4215404.294793866574764 ], [ 613214.399037594674155, 4215408.309795349836349 ], [ 613217.830038861720823, 4215420.710799928754568 ], [ 613216.688038439955562, 4215421.277800138108432 ], [ 613209.978035962209105, 4215424.025801152922213 ], [ 613210.186036039027385, 4215424.572801356203854 ], [ 613208.545035433256999, 4215425.246801602654159 ], [ 613204.015033760573715, 4215426.63280211482197 ], [ 613203.349033514852636, 4215428.262802716344595 ], [ 613203.75903366599232, 4215429.637803222984076 ], [ 613195.63803066755645, 4215432.39580424502492 ], [ 613196.008030803641304, 4215433.080804497934878 ], [ 613192.717029588995501, 4215433.668804712593555 ], [ 613191.832029262091964, 4215430.651803598739207 ], [ 613192.278029426699504, 4215430.374803498387337 ], [ 613192.149029379012063, 4215429.746803265064955 ], [ 613187.316434102482162, 4215430.440596233122051 ], [ 613187.081461885361932, 4215429.44540140312165 ], [ 613172.889139939448796, 4215430.173803422600031 ], [ 613162.984018609742634, 4215431.611803952604532 ], [ 613163.007018618285656, 4215433.082127657718956 ], [ 613159.777017425745726, 4215433.888804794289172 ], [ 613157.495016583125107, 4215425.581801725551486 ], [ 613141.37671781075187, 4215429.504722547717392 ], [ 613142.376497121527791, 4215433.68373765796423 ], [ 613141.05189502146095, 4215433.684667548164725 ], [ 613140.80351845396217, 4215436.276704508811235 ], [ 613133.126007585204206, 4215438.198806386440992 ], [ 613129.171859620488249, 4215438.923570037819445 ], [ 613128.846247504581697, 4215437.208367221988738 ], [ 613104.294996939250268, 4215441.10980746243149 ], [ 613104.401406669756398, 4215442.090807823464274 ], [ 613083.300989187089726, 4215442.995808158069849 ], [ 613080.108988008461893, 4215442.232807875610888 ], [ 613077.982987223542295, 4215442.504807977005839 ], [ 613066.374982937355526, 4215442.713808053173125 ], [ 613064.711982323322445, 4215442.336807915009558 ], [ 613043.009360161842778, 4215442.488842600956559 ], [ 612993.96067423815839, 4215449.760425500571728 ], [ 612993.879307177383453, 4215449.706764034926891 ] ], [ [ 613982.549638682743534, 4214910.818106225691736 ], [ 613980.711320554371923, 4214908.101610649377108 ], [ 613991.806324650766328, 4214900.69260791502893 ], [ 613999.329327428946272, 4214910.689611602574587 ], [ 614000.852023498620838, 4214909.117704437114298 ], [ 614091.820102500962093, 4214829.132898803800344 ], [ 614081.088357618195005, 4214808.67457393463701 ], [ 614066.404352196143009, 4214760.333556084893644 ], [ 614069.68687139893882, 4214759.15823825635016 ], [ 614062.505350756342523, 4214736.731547372415662 ], [ 614052.972347236354835, 4214739.260548303835094 ], [ 614050.709871595725417, 4214731.958968928083777 ], [ 614076.494355922448449, 4214722.009541933424771 ], [ 614077.324975102790631, 4214724.014752998016775 ], [ 614111.439368825755082, 4214709.883537456393242 ], [ 614128.760375221143477, 4214704.136535332538188 ], [ 614138.402397277764976, 4214700.287816691212356 ], [ 614173.624964117771015, 4214822.879235374741256 ], [ 614108.310367669910192, 4214840.425585658289492 ], [ 614064.851851622923277, 4214872.098097355104983 ], [ 614016.31333369994536, 4214915.956613548099995 ], [ 614015.968507299665362, 4214916.255318741314113 ], [ 614004.883030079770833, 4214925.734335729852319 ], [ 614005.394511742051691, 4214926.394428827799857 ], [ 613994.711239897063933, 4214934.938881332986057 ], [ 613997.904891096055508, 4214938.567050348035991 ], [ 613992.786259311717004, 4214942.853629392571747 ], [ 613990.495034322957508, 4214939.920035097748041 ], [ 613971.043061560951173, 4214954.844350382685661 ], [ 613968.259604093967937, 4214951.631011598743498 ], [ 613945.39255418931134, 4214969.830457137897611 ], [ 613947.1032070472138, 4214969.208583132363856 ], [ 613929.985203736112453, 4214985.8173838108778 ], [ 613920.099930003052577, 4215010.370972206816077 ], [ 613919.685298020369373, 4215013.559649587608874 ], [ 613912.611081096343696, 4215016.861611736007035 ], [ 613907.41468297841493, 4215019.595871756784618 ], [ 613907.148995931725949, 4215019.051605559885502 ], [ 613905.731278010411188, 4215019.860792027786374 ], [ 613910.572648564702831, 4215028.4391332808882 ], [ 613906.813028565258719, 4215030.381573611870408 ], [ 613902.056898106122389, 4215028.456793781369925 ], [ 613899.728760083205998, 4215024.758096591569483 ], [ 613894.843715933151543, 4215027.789587212726474 ], [ 613878.581312103196979, 4215034.055660903453827 ], [ 613878.03056051954627, 4215032.427417986094952 ], [ 613874.067755592637695, 4215034.826556 ], [ 613873.670531141106039, 4215034.159629203379154 ], [ 613865.846763682784513, 4215038.283595616929233 ], [ 613863.576916549354792, 4215039.589188897050917 ], [ 613851.349264889489859, 4215045.065962698310614 ], [ 613851.637502777273767, 4215045.854444546625018 ], [ 613842.874528277199715, 4215049.526498611085117 ], [ 613842.613362074713223, 4215048.626839512959123 ], [ 613837.669577950728126, 4215051.15904030483216 ], [ 613839.247441550251096, 4215054.508826233446598 ], [ 613836.367551845847629, 4215056.491949212737381 ], [ 613830.615113283856772, 4215059.06091040559113 ], [ 613828.576629707124084, 4215053.618068473413587 ], [ 613820.29139249783475, 4215057.174042322672904 ], [ 613822.406698829960078, 4215059.8396669132635 ], [ 613819.269815895007923, 4215061.796798819676042 ], [ 613814.12930929788854, 4215054.901401929557323 ], [ 613812.831913083675317, 4215055.547496288083494 ], [ 613818.477519268752076, 4215065.36150445882231 ], [ 613818.023519100970589, 4215065.655504567548633 ], [ 613818.906519427197054, 4215067.016505070030689 ], [ 613804.906514257425442, 4215074.738507920876145 ], [ 613804.416514076525345, 4215073.932507622987032 ], [ 613799.397512223222293, 4215075.315672391094267 ], [ 613798.550511910347268, 4215075.157508076168597 ], [ 613797.629511570674367, 4215072.895507239736617 ], [ 613796.780511257122271, 4215072.784507201053202 ], [ 613795.122171779745258, 4215074.282331267371774 ], [ 613793.552510065142997, 4215074.993508013896644 ], [ 613787.995673179626465, 4215077.28643153142184 ], [ 613783.493247731821612, 4215079.070673778653145 ], [ 613776.691731932689436, 4215071.432540280744433 ], [ 613761.186498114024289, 4215079.930509838275611 ], [ 613760.522740311454982, 4215078.936718543060124 ], [ 613740.854182833223604, 4215089.805860833264887 ], [ 613740.309087315457873, 4215092.215056833811104 ], [ 613727.723685098579153, 4215101.304509973153472 ], [ 613723.920484353788197, 4215102.502518171444535 ], [ 613714.002549934317358, 4215110.475864453241229 ], [ 613686.81819320784416, 4215144.643941823393106 ], [ 613683.700881423777901, 4215145.587112783454359 ], [ 613681.722006859024987, 4215146.731629621237516 ], [ 613681.258880522334948, 4215148.993114043027163 ], [ 613681.27766820054967, 4215151.590591822750866 ], [ 613679.466879860381596, 4215152.597115373238921 ], [ 613680.068880082922988, 4215153.395115667954087 ], [ 613675.477878387435339, 4215157.206117074936628 ], [ 613675.931878554983996, 4215158.855117683298886 ], [ 613672.747877379297279, 4215165.762120235711336 ], [ 613673.453877640073188, 4215168.761121342889965 ], [ 613673.159877531579696, 4215171.161122228018939 ], [ 613677.012878954294138, 4215172.502122722566128 ], [ 613678.362879452761263, 4215172.399122685194016 ], [ 613678.518879510345869, 4215175.099123681895435 ], [ 613677.776921909651719, 4215175.44571076054126 ], [ 613681.331458874628879, 4215181.341225019656122 ], [ 613677.433879109681584, 4215181.501126046292484 ], [ 613678.550809159758501, 4215186.271691461093724 ], [ 613679.238570000976324, 4215190.210133541375399 ], [ 613682.115880838828161, 4215195.24113111756742 ], [ 613676.115878623211756, 4215195.505131218582392 ], [ 613676.117878623888828, 4215196.205131474882364 ], [ 613674.74755472142715, 4215196.3257199767977 ], [ 613674.424877998651937, 4215199.558132713660598 ], [ 613680.623880287748761, 4215198.794132431969047 ], [ 613680.938880403875373, 4215205.343134851194918 ], [ 613668.940875973668881, 4215206.42113524582237 ], [ 613666.473875062540174, 4215204.490134536288679 ], [ 613662.477560227154754, 4215204.346536068245769 ], [ 613658.799664251855575, 4215206.894333802163601 ], [ 613656.831871502567083, 4215202.349133744835854 ], [ 613655.524871020345017, 4215199.202132580801845 ], [ 613658.421872089616954, 4215198.145132190547884 ], [ 613657.810871864319779, 4215193.197130366228521 ], [ 613656.460871365852654, 4215193.400130439549685 ], [ 613655.104870864888653, 4215190.503129368647933 ], [ 613658.052871953346767, 4215189.696129072457552 ], [ 613657.23605234711431, 4215182.349751508794725 ], [ 613655.404373974073678, 4215182.28584008757025 ], [ 613654.179870523279533, 4215179.755125403404236 ], [ 613659.626872534747235, 4215178.393124899826944 ], [ 613659.865443288348615, 4215166.135362628847361 ], [ 613657.245871655410156, 4215165.298120063729584 ], [ 613660.333872795803472, 4215159.741118012927473 ], [ 613661.578873255406506, 4215157.588117215782404 ], [ 613663.327454636455514, 4215154.853581693023443 ], [ 613661.869873362826183, 4215153.787115813232958 ], [ 613667.008809004793875, 4215147.029298382811248 ], [ 613661.240873130620457, 4215141.239111177623272 ], [ 613665.372318045352586, 4215135.219183398410678 ], [ 613674.055632626404986, 4215143.824391422793269 ], [ 613683.35920303245075, 4215131.845939996652305 ], [ 613686.419211887521669, 4215131.150693008676171 ], [ 613712.841239409404807, 4215072.798751814290881 ], [ 613715.04316789668519, 4215073.759495130740106 ], [ 613719.124595529981889, 4215070.818455163389444 ], [ 613723.229462804854847, 4215068.327346447855234 ], [ 613720.718491174397059, 4215063.674865863285959 ], [ 613729.634344934602268, 4215056.07496331166476 ], [ 613734.840875375666656, 4215062.671827641315758 ], [ 613739.121539964457043, 4215059.111733332276344 ], [ 613743.428574150544591, 4215064.383268256671727 ], [ 613749.511161205009557, 4215060.02329617086798 ], [ 613752.4469763438683, 4215064.525799671187997 ], [ 613783.829247855930589, 4215048.871662626974285 ], [ 613784.700248177396134, 4215051.182663480751216 ], [ 613791.963282510754652, 4215046.904024221934378 ], [ 613803.07604144513607, 4215043.418865549378097 ], [ 613801.257100495742634, 4215039.222219290211797 ], [ 613807.132667975034565, 4215038.373899953439832 ], [ 613809.26389512384776, 4215036.473833148367703 ], [ 613819.140736778615974, 4215031.994274375960231 ], [ 613822.059942573658191, 4215039.025582735426724 ], [ 613877.04344248434063, 4215007.092842031270266 ], [ 613873.29828089219518, 4214996.565643310546875 ], [ 613873.298280891845934, 4214996.565643310546875 ], [ 613883.165284535731189, 4214991.391641403548419 ], [ 613894.182288603391498, 4214986.231639498844743 ], [ 613901.8139629047364, 4214982.291733325459063 ], [ 613902.561755327158608, 4214983.965829745866358 ], [ 613903.798860692884773, 4214983.40961848013103 ], [ 613904.324768220074475, 4214984.441309906542301 ], [ 613906.216293047065847, 4214983.635638540610671 ], [ 613907.680293587851338, 4214986.454639580100775 ], [ 613911.149294868460856, 4214984.948639025911689 ], [ 613924.541299813892692, 4214960.188629880547523 ], [ 613925.426588608534075, 4214958.300205299630761 ], [ 613959.733434379217215, 4214930.549126559868455 ], [ 613960.709109470364638, 4214931.407506038434803 ], [ 613974.380280566518195, 4214920.06243107188493 ], [ 613972.455299981520511, 4214918.014871603809297 ], [ 613976.097234330023639, 4214914.817487828433514 ], [ 613976.639276047819294, 4214915.403568486683071 ], [ 613982.549638682743534, 4214910.818106225691736 ] ] ] } }
]
}
