{
"type": "FeatureCollection",
"name": "ways",
"crs": { "type": "name", "properties": { "name": "urn:ogc:def:crs:EPSG::32638" } },
"features": [
{ "type": "Feature", "properties": { "Layer": "qgis ways", "PaperSpace": null, "SubClasses": "AcDbEntity:AcDbHatch", "Linetype": null, "EntityHandle": "6A", "Text": "SOLID" }, "geometry": { "type": "Polygon", "coordinates": [ [ [ 613416.133761064615101, 4215374.712122515775263 ], [ 613412.520468873204663, 4215375.173186924308538 ], [ 613407.301843618624844, 4215391.241557202301919 ], [ 613403.682309363270178, 4215402.386257925070822 ], [ 613402.209377612220123, 4215406.921477758325636 ], [ 613402.007682062452659, 4215407.542506980709732 ], [ 613401.877717040246353, 4215407.905374600552022 ], [ 613401.29954640311189, 4215410.655065118335187 ], [ 613398.037970894831233, 4215426.081052196212113 ], [ 613396.75102871353738, 4215430.022190653719008 ], [ 613395.615679316804744, 4215435.391952928155661 ], [ 613394.966199437505566, 4215438.213850362226367 ], [ 613394.116261165356264, 4215441.494667770341039 ], [ 613392.544764569262043, 4215448.762345383875072 ], [ 613392.866204502759501, 4215454.51754929125309 ], [ 613392.731300489627756, 4215454.877665691077709 ], [ 613396.153618123498745, 4215454.608035962097347 ], [ 613395.95605799544137, 4215447.37820709310472 ], [ 613396.575491313473321, 4215445.214188555255532 ], [ 613396.786553277517669, 4215444.258265281096101 ], [ 613397.587944619706832, 4215441.010346151888371 ], [ 613398.395719784544781, 4215437.468660106882453 ], [ 613399.872914184001274, 4215430.773014879785478 ], [ 613400.737829868565314, 4215428.889976866543293 ], [ 613403.676684507518075, 4215415.355251550674438 ], [ 613404.210523360758089, 4215412.6895651537925 ], [ 613404.715791615773924, 4215410.418755396269262 ], [ 613405.474111664807424, 4215407.994923808611929 ], [ 613416.133761064615101, 4215374.712122515775263 ] ], [ [ 613433.965722623164766, 4215460.154128920286894 ], [ 613430.788693723850884, 4215459.996449100784957 ], [ 613426.37281691597309, 4215459.534400421194732 ], [ 613418.968433099798858, 4215458.777477392926812 ], [ 613417.080434057163075, 4215458.148460963740945 ], [ 613416.921481421566568, 4215458.531791754998267 ], [ 613416.564063582220115, 4215458.35713011585176 ], [ 613414.465370252146386, 4215457.740942753851414 ], [ 613411.583027991931885, 4215456.661680030636489 ], [ 613410.046902031055652, 4215461.31444538757205 ], [ 613412.653125274344347, 4215462.050224114209414 ], [ 613412.633651524432935, 4215461.986392799764872 ], [ 613426.135428549605422, 4215463.793398587964475 ], [ 613426.185498286853544, 4215463.417790259234607 ], [ 613430.135312603437342, 4215463.749696267768741 ], [ 613433.965722623164766, 4215460.154128920286894 ] ], [ [ 613430.135312603437342, 4215463.749696267768741 ], [ 613426.185498286853544, 4215463.417790259234607 ], [ 613425.106169923441485, 4215469.876841178163886 ], [ 613431.202374873566441, 4215498.438644699752331 ], [ 613435.956467668875121, 4215499.422589395195246 ], [ 613429.193275037454441, 4215470.613298363052309 ], [ 613429.878305817372166, 4215467.204930538311601 ], [ 613430.135312603437342, 4215463.749696267768741 ] ], [ [ 613426.011393555440009, 4215377.207182045094669 ], [ 613420.192442262428813, 4215403.763927778229117 ], [ 613417.016622748109512, 4215418.135178950615227 ], [ 613413.091594139579684, 4215435.896758831106126 ], [ 613409.971101696020924, 4215450.017643373459578 ], [ 613409.604739232454449, 4215451.675510564818978 ], [ 613409.476579254842363, 4215452.046117240563035 ], [ 613408.929744256660342, 4215451.560453769750893 ], [ 613407.781883782008663, 4215455.55872071813792 ], [ 613404.391463877051137, 4215455.132461421191692 ], [ 613404.887416000594385, 4215452.537801828235388 ], [ 613408.743987441645004, 4215435.545912484638393 ], [ 613416.657353756949306, 4215400.339167293161154 ], [ 613420.989253068924882, 4215381.066449561156332 ], [ 613421.860609861556441, 4215377.1897635422647 ], [ 613422.207888961187564, 4215375.430262538604438 ], [ 613426.011393555440009, 4215377.207182045094669 ] ], [ [ 613435.279690160416067, 4215320.37246273830533 ], [ 613434.435949024162255, 4215320.992303863167763 ], [ 613427.359301739255898, 4215353.759249364957213 ], [ 613423.640741673181765, 4215370.977269443683326 ], [ 613427.749304595054127, 4215371.857988801784813 ], [ 613438.382611152948812, 4215322.612600757740438 ], [ 613437.740145177696832, 4215320.92937243077904 ], [ 613435.279690160416067, 4215320.37246273830533 ] ], [ [ 613423.640741673181765, 4215370.977269443683326 ], [ 613416.096253510331735, 4215370.390632838942111 ], [ 613416.028990166378208, 4215374.712122515775263 ], [ 613422.207888961187564, 4215375.430262538604438 ], [ 613423.640741673181765, 4215370.977269443683326 ] ], [ [ 613447.093724243459292, 4215378.945082662627101 ], [ 613447.093724243459292, 4215370.812237915582955 ], [ 613444.549133818480186, 4215373.139263856224716 ], [ 613444.564965752069838, 4215373.713174350559711 ], [ 613444.101121648913249, 4215373.725969988852739 ], [ 613443.348446786752902, 4215372.863122193142772 ], [ 613430.862542144022882, 4215372.50431873369962 ], [ 613427.604778915760107, 4215372.226991549134254 ], [ 613426.011393555440009, 4215377.207182045094669 ], [ 613443.18177050340455, 4215377.285775815136731 ], [ 613444.506018874468282, 4215376.193354013375938 ], [ 613447.093724243459292, 4215378.945082662627101 ] ], [ [ 613414.392800130648538, 4215354.398498641327024 ], [ 613417.719391549588181, 4215354.760512569919229 ], [ 613416.096253510331735, 4215370.390632838942111 ], [ 613412.809297305648215, 4215370.1350490571931 ], [ 613414.353647472453304, 4215356.097174140624702 ], [ 613414.38738733867649, 4215355.790484614670277 ], [ 613414.392800130648538, 4215354.398498641327024 ] ], [ [ 613421.162746114074253, 4215321.602491086348891 ], [ 613418.21739953989163, 4215321.49067148566246 ], [ 613416.789356936467811, 4215332.5020168768242 ], [ 613415.915100110461935, 4215340.084543573670089 ], [ 613415.704705412266776, 4215342.420338435098529 ], [ 613414.447803554008715, 4215352.408639625646174 ], [ 613414.392800130648538, 4215354.398498641327024 ], [ 613417.719391549588181, 4215354.760512569919229 ], [ 613421.162746114074253, 4215321.602491086348891 ] ], [ [ 613495.207707701832987, 4215379.385029305703938 ], [ 613495.958391523570754, 4215379.364320891909301 ], [ 613497.713087365613319, 4215378.078860141336918 ], [ 613497.713087365613319, 4215376.861922561191022 ], [ 613506.367444750852883, 4215376.751914796419442 ], [ 613506.343749915715307, 4215377.554016184993088 ], [ 613523.140368763008155, 4215377.594783676788211 ], [ 613522.721667010104284, 4215374.887005366384983 ], [ 613521.803821818204597, 4215374.879246349446476 ], [ 613521.809093381278217, 4215374.255651973187923 ], [ 613516.48566282633692, 4215374.314143374562263 ], [ 613516.433868004474789, 4215374.845738874748349 ], [ 613515.837736734538339, 4215374.862183790653944 ], [ 613515.889531556284055, 4215374.330588295124471 ], [ 613514.586272587417625, 4215374.344449806958437 ], [ 613514.579237386933528, 4215374.896900841034949 ], [ 613505.912259516655467, 4215374.694183115847409 ], [ 613505.937161407084204, 4215373.986607261933386 ], [ 613497.737552483566105, 4215373.831838441081345 ], [ 613497.737552483566105, 4215373.39207945112139 ], [ 613496.166075510322116, 4215371.582813710905612 ], [ 613495.371233817306347, 4215371.604740265756845 ], [ 613495.207707701832987, 4215379.385029305703938 ] ], [ [ 613436.560675936634652, 4215502.73727710545063 ], [ 613435.956467669690028, 4215499.422589399851859 ], [ 613431.202374873450026, 4215498.438644699752331 ], [ 613431.819612732855603, 4215502.684177020564675 ], [ 613436.560675936634652, 4215502.73727710545063 ] ], [ [ 613436.560675936634652, 4215502.737277103587985 ], [ 613431.819612732855603, 4215502.684177020564675 ], [ 613437.175396158942021, 4215526.696991316974163 ], [ 613439.184090176364407, 4215532.799900586716831 ], [ 613442.929291106527671, 4215531.251540984027088 ], [ 613441.95593271648977, 4215525.85626202262938 ], [ 613436.560675936634652, 4215502.737277103587985 ] ], [ [ 613431.819612732855603, 4215502.684177020564675 ], [ 613431.202374873450026, 4215498.438644699752331 ], [ 613424.661998415016569, 4215499.506652998737991 ], [ 613424.835809823474847, 4215499.155333696864545 ], [ 613424.82516301877331, 4215499.144414418376982 ], [ 613420.638423744007014, 4215499.827752871438861 ], [ 613420.983694579335861, 4215504.074998166412115 ], [ 613431.819612732855603, 4215502.684177020564675 ] ], [ [ 613449.949845612747595, 4215498.601231577806175 ], [ 613435.956467668875121, 4215499.422589395195246 ], [ 613436.548963158507831, 4215502.670710859820247 ], [ 613450.171035613282584, 4215501.872820467688143 ], [ 613449.949845612747595, 4215498.601231577806175 ] ], [ [ 613420.638423744007014, 4215499.827752871438861 ], [ 613420.548883099691011, 4215498.665801793336868 ], [ 613417.679260336211883, 4215495.995255826041102 ], [ 613418.242207531468011, 4215495.917351072654128 ], [ 613417.690609230077825, 4215495.525168848223984 ], [ 613416.823573717847466, 4215495.596935618668795 ], [ 613416.767493262304924, 4215495.219323088414967 ], [ 613416.299981132848188, 4215495.313739771954715 ], [ 613416.177143520792015, 4215493.161717497743666 ], [ 613415.906646637595259, 4215493.157422676682472 ], [ 613415.853899602079764, 4215492.589041170664132 ], [ 613415.43628894246649, 4215492.627796344459057 ], [ 613415.437249998794869, 4215491.806841680780053 ], [ 613415.188196589704603, 4215490.464300937950611 ], [ 613415.032455599866807, 4215488.744455005973577 ], [ 613411.923186833853833, 4215488.932154964655638 ], [ 613412.448318414506502, 4215492.088647381402552 ], [ 613412.935555554693565, 4215492.167734540998936 ], [ 613412.946874482091516, 4215492.404260306619108 ], [ 613413.145463873283006, 4215492.39475682284683 ], [ 613413.141020551440306, 4215492.861076557077467 ], [ 613412.745130256516859, 4215492.904011946171522 ], [ 613412.7973778716987, 4215493.345122636295855 ], [ 613412.509639100637287, 4215494.181343122385442 ], [ 613412.681862684781663, 4215495.769609120674431 ], [ 613412.406371622229926, 4215496.838136741891503 ], [ 613412.302487967535853, 4215496.965692898258567 ], [ 613412.108650830574334, 4215496.799450663849711 ], [ 613409.825405141105875, 4215499.493704365566373 ], [ 613409.897827640292235, 4215501.286962234415114 ], [ 613420.638423744007014, 4215499.827752871438861 ] ], [ [ 613418.686279505258426, 4215507.696973335929215 ], [ 613413.320012675132602, 4215508.29324393812567 ], [ 613414.01398055953905, 4215515.152427457273006 ], [ 613419.444746719440445, 4215514.538636365905404 ], [ 613418.686279505258426, 4215507.696973335929215 ] ], [ [ 613410.476973128155805, 4215505.138784730806947 ], [ 613409.897827640292235, 4215501.286962234415114 ], [ 613406.325307566206902, 4215501.7211879119277 ], [ 613406.309927990310825, 4215501.432273290120065 ], [ 613384.302940724184737, 4215503.178257134743035 ], [ 613385.517782118404284, 4215511.05693931132555 ], [ 613404.470616829348728, 4215509.139775533229113 ], [ 613404.1913151711924, 4215505.973184923641384 ], [ 613406.466480262461118, 4215505.777151426300406 ], [ 613406.462394673144445, 4215505.464972157031298 ], [ 613409.687485249945894, 4215505.26955727301538 ], [ 613410.476973128155805, 4215505.138784730806947 ] ], [ [ 613407.08303271944169, 4215480.625786911696196 ], [ 613418.571638037683442, 4215480.347021303139627 ], [ 613418.249623148934916, 4215480.609428546391428 ], [ 613416.756349937757477, 4215482.839803948067129 ], [ 613416.029542187112384, 4215482.900680140592158 ], [ 613416.05520405259449, 4215483.387418887577951 ], [ 613415.878725458751433, 4215483.396813242696226 ], [ 613415.921884051058441, 4215484.215419317595661 ], [ 613416.206751164630987, 4215486.967748653143644 ], [ 613416.118231144850142, 4215486.967748653143644 ], [ 613415.032455599866807, 4215488.744455005973577 ], [ 613411.923186833853833, 4215488.932154964655638 ], [ 613410.181063063209876, 4215487.289888763800263 ], [ 613409.864866675343364, 4215485.13688568584621 ], [ 613409.864866675343364, 4215484.690670444630086 ], [ 613410.258341470034793, 4215484.627835348248482 ], [ 613410.229180229711346, 4215484.074723136611283 ], [ 613409.855329695856199, 4215484.116810622625053 ], [ 613409.854060551268049, 4215483.673146557062864 ], [ 613409.368744418839924, 4215483.673146557062864 ], [ 613406.895425568567589, 4215481.823621477931738 ], [ 613407.195870129275136, 4215481.507243570871651 ], [ 613407.08303271944169, 4215480.625786911696196 ] ], [ [ 613395.282193212769926, 4215481.27615874633193 ], [ 613395.022177907056175, 4215476.763937377370894 ], [ 613395.427317186491564, 4215476.476131928153336 ], [ 613396.616522885276936, 4215477.633089796639979 ], [ 613396.899801254970953, 4215477.551450508646667 ], [ 613396.797564576729201, 4215477.290653820149601 ], [ 613398.634889562847093, 4215477.005051521584392 ], [ 613398.601673174998723, 4215476.976676165126264 ], [ 613398.912811986985616, 4215477.004747016355395 ], [ 613399.048639106797054, 4215477.485770160332322 ], [ 613399.177106078714132, 4215477.129197512753308 ], [ 613401.444477287586778, 4215476.921620012260973 ], [ 613401.458405567449518, 4215477.187148992903531 ], [ 613401.833397093228996, 4215477.167497075162828 ], [ 613401.84152827237267, 4215476.900812038220465 ], [ 613402.259482236462645, 4215476.435143763199449 ], [ 613403.138718681060709, 4215475.045053926296532 ], [ 613404.639424939756282, 4215474.689288816414773 ], [ 613404.639424939756282, 4215475.029226805083454 ], [ 613406.071508854161948, 4215474.866748321801424 ], [ 613406.055178576381877, 4215474.557005481794477 ], [ 613406.272277473122813, 4215474.478889076039195 ], [ 613407.08303271944169, 4215480.625786911696196 ], [ 613405.593462708522566, 4215480.904759306460619 ], [ 613402.008395729004405, 4215480.056057141162455 ], [ 613401.610864968621172, 4215480.085156744346023 ], [ 613399.123661556746811, 4215480.327105296775699 ], [ 613398.526924389530905, 4215480.336189841851592 ], [ 613398.526924389530905, 4215480.65882005635649 ], [ 613397.153778925421648, 4215481.109970282763243 ], [ 613397.118785472470336, 4215480.446235626935959 ], [ 613396.69964881206397, 4215480.468547214753926 ], [ 613395.830292168539017, 4215481.601967506110668 ], [ 613395.282193212769926, 4215481.27615874633193 ] ], [ [ 613410.046902031055652, 4215461.31444538757205 ], [ 613410.2773939963663, 4215462.750852045603096 ], [ 613410.328064759261906, 4215465.809902936220169 ], [ 613408.252724562655203, 4215468.405275068245828 ], [ 613408.128941540140659, 4215470.253350556828082 ], [ 613408.170830987975933, 4215470.628292568027973 ], [ 613408.565574927022681, 4215470.562906297855079 ], [ 613408.66324850753881, 4215471.156744603998959 ], [ 613408.245278295944445, 4215471.201180683448911 ], [ 613408.309227567515336, 4215471.574948398396373 ], [ 613407.942375695100054, 4215471.749782818369567 ], [ 613406.235053819254972, 4215474.192445018328726 ], [ 613406.272277473122813, 4215474.478889076039195 ], [ 613417.772136491723359, 4215472.735210046172142 ], [ 613415.235909675364383, 4215470.784680473618209 ], [ 613414.621733942534775, 4215470.883934172801673 ], [ 613414.576345149311237, 4215470.442618696950376 ], [ 613414.355746907298453, 4215470.454361638054252 ], [ 613414.335917284013703, 4215470.078245333395898 ], [ 613414.577408901881427, 4215470.043203608132899 ], [ 613414.528520763735287, 4215469.53551466576755 ], [ 613415.25258483318612, 4215467.744231187738478 ], [ 613412.866110992152244, 4215465.6969836037606 ], [ 613412.924288217560388, 4215463.428636574186385 ], [ 613410.046902031055652, 4215461.31444538757205 ] ], [ [ 613381.707349833799526, 4215490.513174176216125 ], [ 613383.269342343555763, 4215492.027459646575153 ], [ 613383.39780931500718, 4215491.670887 ], [ 613390.214882061467506, 4215484.186106293462217 ], [ 613388.623625438543968, 4215482.610363071784377 ], [ 613387.299383202800527, 4215483.853200095705688 ], [ 613381.835816803853959, 4215490.156601529568434 ], [ 613381.707349833683111, 4215490.513174176216125 ], [ 613381.707349833799526, 4215490.513174176216125 ] ], [ [ 613387.934078339952976, 4215477.429678431712091 ], [ 613388.114267355762422, 4215479.163221932016313 ], [ 613383.839526959229261, 4215479.489126861095428 ], [ 613383.661098480224609, 4215479.504684813320637 ], [ 613381.879701949306764, 4215479.660012503154576 ], [ 613381.244735536864027, 4215480.204104563221335 ], [ 613379.542682021157816, 4215478.778787327930331 ], [ 613379.877679403754883, 4215478.191337401978672 ], [ 613377.598152506048791, 4215457.612601464614272 ], [ 613381.472602520720102, 4215458.025594318285584 ], [ 613382.770713690901175, 4215471.130886818282306 ], [ 613383.157434834050946, 4215475.179918400011957 ], [ 613383.30391724454239, 4215476.713612427003682 ], [ 613383.405867971130647, 4215477.553873515687883 ], [ 613383.433452679542825, 4215477.833126003853977 ], [ 613387.934078339952976, 4215477.429678431712091 ] ] ] } },
{ "type": "Feature", "properties": { "Layer": "qgis ways", "PaperSpace": null, "SubClasses": "AcDbEntity:AcDbHatch", "Linetype": null, "EntityHandle": "76", "Text": "SOLID" }, "geometry": { "type": "Polygon", "coordinates": [ [ [ 613505.089202373055741, 4215524.205957531929016 ], [ 613502.152700195088983, 4215500.17509176209569 ], [ 613501.541075809742324, 4215495.037667880766094 ], [ 613501.553344256943092, 4215493.494818625040352 ], [ 613497.521175662404858, 4215463.116070940159261 ], [ 613491.891978098079562, 4215463.39523199480027 ], [ 613492.487004187772982, 4215468.288153693079948 ], [ 613492.851841781055555, 4215471.258979039266706 ], [ 613493.345313569996506, 4215475.196728787384927 ], [ 613493.830494809895754, 4215479.052310787141323 ], [ 613495.289420900749974, 4215490.706108289770782 ], [ 613495.9283547392115, 4215495.771227461285889 ], [ 613496.488593940041028, 4215500.236059637740254 ], [ 613496.986989447148517, 4215504.92066575307399 ], [ 613497.583578397287056, 4215509.652745495550334 ], [ 613499.495858403388411, 4215524.89268103055656 ], [ 613499.303988277446479, 4215522.673374290578067 ], [ 613499.53854983439669, 4215524.542715076357126 ], [ 613499.58246294001583, 4215524.89268103055656 ], [ 613505.089202373055741, 4215524.205957531929016 ] ], [ [ 613491.891978098079562, 4215463.39523199480027 ], [ 613497.135955940932035, 4215458.353056460618973 ], [ 613496.98192892386578, 4215458.017633427865803 ], [ 613494.140181976836175, 4215458.221999638713896 ], [ 613490.507326875464059, 4215458.530333243310452 ], [ 613488.752820038702339, 4215458.762510621920228 ], [ 613488.355660154484212, 4215458.783104280009866 ], [ 613486.540103119215928, 4215458.78350172098726 ], [ 613486.144255297142081, 4215458.823460274375975 ], [ 613484.675116905244067, 4215459.035773718729615 ], [ 613484.278190453303978, 4215459.06302273273468 ], [ 613482.732006573001854, 4215459.177092401310802 ], [ 613482.433936857036315, 4215459.189630815759301 ], [ 613480.796911391429603, 4215459.308684065006673 ], [ 613478.167504816781729, 4215459.48252154327929 ], [ 613477.869557812693529, 4215459.502975615672767 ], [ 613476.033701728796586, 4215459.629007209092379 ], [ 613474.377212210558355, 4215459.742725281044841 ], [ 613474.079265207750723, 4215459.76317935436964 ], [ 613472.200439328909852, 4215459.892160827293992 ], [ 613471.803512877086177, 4215459.919409841299057 ], [ 613469.884055076516233, 4215460.017246320843697 ], [ 613469.487231334322132, 4215460.042710724286735 ], [ 613463.402219196315855, 4215460.433189363218844 ], [ 613460.60984573001042, 4215460.407147903926671 ], [ 613455.122762380749919, 4215460.355975795537233 ], [ 613450.00773026747629, 4215460.355975797399879 ], [ 613446.109423408284783, 4215460.271918105892837 ], [ 613440.710290455492213, 4215460.221566216088831 ], [ 613433.965938246343285, 4215460.158668916672468 ], [ 613430.135312603437342, 4215463.749696267768741 ], [ 613440.763726181583479, 4215464.478169711306691 ], [ 613440.775442960322835, 4215465.411509349942207 ], [ 613452.505795690463856, 4215465.650225996039808 ], [ 613454.796518063754775, 4215465.461725940927863 ], [ 613466.482598047703505, 4215465.571806777268648 ], [ 613467.981396949850023, 4215465.048290709964931 ], [ 613471.918171124183573, 4215464.768583920784295 ], [ 613481.577533727977425, 4215464.082288708537817 ], [ 613489.358726685284637, 4215463.526746152900159 ], [ 613491.624770190217532, 4215463.080005845986307 ], [ 613491.891978098079562, 4215463.39523199480027 ] ], [ [ 613491.891978098079562, 4215463.39523199480027 ], [ 613497.524918282753788, 4215463.109273272566497 ], [ 613500.367384800687432, 4215457.940153718926013 ], [ 613497.251241410966031, 4215458.345616886392236 ], [ 613497.135955940932035, 4215458.353056460618973 ], [ 613491.891978098079562, 4215463.39523199480027 ] ], [ [ 613509.239850910264067, 4215462.976618908345699 ], [ 613509.007102905656211, 4215458.003336887806654 ], [ 613500.367525347042829, 4215457.946287172846496 ], [ 613497.521175662404858, 4215463.116070940159261 ], [ 613507.15829467214644, 4215462.75593432597816 ], [ 613508.842694333870895, 4215462.994271506555378 ], [ 613509.239850910264067, 4215462.976618908345699 ] ], [ [ 613509.239850910264067, 4215462.976618908345699 ], [ 613512.427148903952911, 4215462.895155673846602 ], [ 613512.714110108092427, 4215458.430528251454234 ], [ 613509.035107765346766, 4215458.361268608830869 ], [ 613509.239850910264067, 4215462.976618908345699 ] ], [ [ 613518.442176629556343, 4215522.974815593101084 ], [ 613518.316924116224982, 4215521.945289891213179 ], [ 613518.642785456613638, 4215521.926891263574362 ], [ 613514.655477992142551, 4215484.564383676275611 ], [ 613513.822243908070959, 4215476.880432491190732 ], [ 613512.427148903952911, 4215462.895155673846602 ], [ 613509.239850910264067, 4215462.976618908345699 ], [ 613508.895531165762804, 4215470.202957935631275 ], [ 613511.310217959689908, 4215492.379992417991161 ], [ 613511.478858726797625, 4215493.922775448299944 ], [ 613514.465644593117759, 4215522.143094858154655 ], [ 613514.828004489303567, 4215522.142279578372836 ], [ 613514.938724628882483, 4215523.230024452321231 ], [ 613518.442176629556343, 4215522.974815593101084 ] ], [ [ 613555.026658643386327, 4215465.114546470344067 ], [ 613550.775824022712186, 4215464.744074792601168 ], [ 613546.018899572547525, 4215463.78312249109149 ], [ 613544.60162989096716, 4215463.489076090976596 ], [ 613541.984021952142939, 4215463.368907696567476 ], [ 613538.03254931140691, 4215463.2724599996582 ], [ 613537.526410962338559, 4215463.216117765754461 ], [ 613534.138048975379206, 4215463.241422820836306 ], [ 613532.132607884588651, 4215463.21175482403487 ], [ 613530.383377584628761, 4215463.17903277091682 ], [ 613523.000466265017167, 4215463.028511321172118 ], [ 613520.416060482151806, 4215463.023323462344706 ], [ 613512.427148903952911, 4215462.895155673846602 ], [ 613512.714110108092427, 4215458.430528251454234 ], [ 613522.881779243936762, 4215458.621941314078867 ], [ 613529.326463676174171, 4215458.755421685986221 ], [ 613537.18598755239509, 4215458.922167797572911 ], [ 613545.235208483762108, 4215459.131112035363913 ], [ 613550.754645118839107, 4215460.347381281666458 ], [ 613554.575711530749686, 4215460.951927900314331 ], [ 613555.026658643386327, 4215465.114546470344067 ] ], [ [ 613557.744598985649645, 4215500.433356813155115 ], [ 613536.568077405681834, 4215500.433356813155115 ], [ 613536.426500897156075, 4215496.416889959946275 ], [ 613536.063635312719271, 4215490.677490252070129 ], [ 613533.084980323910713, 4215491.543151983059943 ], [ 613533.00700178660918, 4215494.638687731698155 ], [ 613532.821067411452532, 4215505.228921409696341 ], [ 613557.886417095432989, 4215505.491060992702842 ], [ 613557.744598985649645, 4215500.433356813155115 ] ] ] } },
{ "type": "Feature", "properties": { "Layer": "qgis ways", "PaperSpace": null, "SubClasses": "AcDbEntity:AcDbHatch", "Linetype": null, "EntityHandle": "8E", "Text": "SOLID" }, "geometry": { "type": "Polygon", "coordinates": [ [ [ 613448.957020471454598, 4215409.435740592889488 ], [ 613446.924197245738469, 4215407.578760048374534 ], [ 613445.692776622250676, 4215408.606792629696429 ], [ 613445.486845205770805, 4215408.347390128299594 ], [ 613433.845236786059104, 4215418.984696340747178 ], [ 613434.095927823567763, 4215419.264954379759729 ], [ 613432.513519611558877, 4215420.468808211386204 ], [ 613432.30368415650446, 4215420.115737677551806 ], [ 613431.432001559995115, 4215420.408567370846868 ], [ 613431.171797324204817, 4215420.117179686203599 ], [ 613431.264328970457427, 4215419.747049477882683 ], [ 613427.802077317144722, 4215418.534844664856791 ], [ 613425.543705098098144, 4215419.625312986783683 ], [ 613424.069386065122671, 4215422.011790870688856 ], [ 613420.546460864599794, 4215431.787363521754742 ], [ 613420.224224459379911, 4215432.821071833372116 ], [ 613419.599121699226089, 4215434.002964632585645 ], [ 613419.935119895613752, 4215434.656642513349652 ], [ 613421.293872329755686, 4215437.80522012617439 ], [ 613414.465370252146386, 4215457.740942753851414 ], [ 613416.564063582220115, 4215458.35713011585176 ], [ 613420.841011182288639, 4215447.995086246170104 ], [ 613422.033032773411833, 4215444.774686337448657 ], [ 613422.913310576230288, 4215442.154814348556101 ], [ 613423.706102951662615, 4215439.702415223233402 ], [ 613423.860168164595962, 4215439.029584314674139 ], [ 613428.090285300044343, 4215437.28680710401386 ], [ 613432.568005632143468, 4215424.542250487022102 ], [ 613433.056586424587294, 4215423.52047383505851 ], [ 613435.901542202220298, 4215421.468352976255119 ], [ 613436.671482005156577, 4215422.154002273455262 ], [ 613446.248085984028876, 4215412.76653643976897 ], [ 613448.957020471454598, 4215409.435740592889488 ] ], [ [ 613422.207888961187564, 4215375.430262538604438 ], [ 613426.011393555440009, 4215377.207182045094669 ], [ 613427.604778915760107, 4215372.226991549134254 ], [ 613427.749304595054127, 4215371.857988801784813 ], [ 613423.640741673181765, 4215370.977269443683326 ], [ 613422.207888961187564, 4215375.430262538604438 ] ], [ [ 613416.028990166378208, 4215374.712122515775263 ], [ 613416.096253510331735, 4215370.390632838942111 ], [ 613412.809297305648215, 4215370.135049055330455 ], [ 613412.449257796746679, 4215373.407745690084994 ], [ 613412.320790825295262, 4215373.764318335801363 ], [ 613412.520468873204663, 4215375.173186924308538 ], [ 613416.028990166378208, 4215374.712122515775263 ] ], [ [ 613410.046902031055652, 4215461.31444538757205 ], [ 613411.583027992048301, 4215456.661680028773844 ], [ 613407.781883782008663, 4215455.55872071813792 ], [ 613404.391463877051137, 4215455.132461421191692 ], [ 613396.153618123498745, 4215454.608035962097347 ], [ 613392.731300489627756, 4215454.877665691077709 ], [ 613381.038534883526154, 4215454.405173926614225 ], [ 613381.472602520720102, 4215458.025594318285584 ], [ 613393.05022565589752, 4215458.818324562162161 ], [ 613404.348421632428654, 4215459.600051493383944 ], [ 613410.046902031055652, 4215461.31444538757205 ] ], [ [ 613410.046902031055652, 4215461.31444538757205 ], [ 613412.924288217560388, 4215463.428636574186385 ], [ 613412.494132056133822, 4215462.012559035792947 ], [ 613410.046902031055652, 4215461.31444538757205 ] ] ] } },
{ "type": "Feature", "properties": { "Layer": "qgis ways", "PaperSpace": null, "SubClasses": "AcDbEntity:AcDbHatch", "Linetype": null, "EntityHandle": "94", "Text": "SOLID" }, "geometry": { "type": "Polygon", "coordinates": [ [ [ 613395.022177907056175, 4215476.763937377370894 ], [ 613392.335968693951145, 4215474.267226220108569 ], [ 613389.970670380047522, 4215474.505318747833371 ], [ 613387.934078339952976, 4215477.429678431712091 ], [ 613388.114267355762422, 4215479.163221932016313 ], [ 613383.839526957366616, 4215479.489126861095428 ], [ 613384.127984915510751, 4215482.865142591297626 ], [ 613388.455240420415066, 4215482.443619665689766 ], [ 613388.623625438194722, 4215482.610363071784377 ], [ 613390.214882054599002, 4215484.186106300912797 ], [ 613391.002037042868324, 4215484.011084776371717 ], [ 613391.031302212039009, 4215484.45289440266788 ], [ 613393.405494129634462, 4215484.282501804642379 ], [ 613395.282193212769926, 4215481.27615874633193 ], [ 613395.022177907056175, 4215476.763937377370894 ] ], [ [ 613418.571638037683442, 4215480.347021303139627 ], [ 613417.772136491723359, 4215472.735210046172142 ], [ 613406.272277473122813, 4215474.478889076039195 ], [ 613407.071356356726028, 4215480.627973704598844 ], [ 613418.571638037683442, 4215480.347021303139627 ] ] ] } },
{ "type": "Feature", "properties": { "Layer": "qgis ways", "PaperSpace": null, "SubClasses": "AcDbEntity:AcDbHatch", "Linetype": null, "EntityHandle": "97", "Text": "SOLID" }, "geometry": { "type": "Polygon", "coordinates": [ [ [ 613418.686279505258426, 4215507.696973335929215 ], [ 613421.091265567345545, 4215504.913086099550128 ], [ 613420.983694579335861, 4215504.074998166412115 ], [ 613420.638423744007014, 4215499.827752871438861 ], [ 613409.897827640292235, 4215501.286962234415114 ], [ 613410.476973128155805, 4215505.138784730806947 ], [ 613410.54452444112394, 4215506.000465489923954 ], [ 613413.320012675132602, 4215508.29324393812567 ], [ 613418.686279505258426, 4215507.696973335929215 ] ] ] } },
{ "type": "Feature", "properties": { "Layer": "qgis ways", "PaperSpace": null, "SubClasses": "AcDbEntity:AcDbHatch", "Linetype": null, "EntityHandle": "99", "Text": "SOLID" }, "geometry": { "type": "Polygon", "coordinates": [ [ [ 613528.523923606728204, 4215522.464028711430728 ], [ 613529.133442698977888, 4215527.141493061557412 ], [ 613509.036556121893227, 4215528.704337872564793 ], [ 613498.363996329950169, 4215530.247623047791421 ], [ 613498.33343437849544, 4215529.948730871081352 ], [ 613497.960031719063409, 4215529.996732385829091 ], [ 613497.684885954367928, 4215530.339250404387712 ], [ 613497.723121469374746, 4215530.755967880599201 ], [ 613497.762239003204741, 4215531.083283238112926 ], [ 613497.952843266073614, 4215531.056916998699307 ], [ 613498.378770144889131, 4215533.326844509691 ], [ 613498.441036495496519, 4215534.451192640699446 ], [ 613497.703364248154685, 4215534.524357960559428 ], [ 613497.758269918616861, 4215534.924302021041512 ], [ 613495.855001494754106, 4215535.144713957794011 ], [ 613495.797681423369795, 4215534.726644420064986 ], [ 613494.860647032852285, 4215534.879688750952482 ], [ 613494.75495693879202, 4215533.365325073711574 ], [ 613494.296936822822317, 4215532.120476275682449 ], [ 613494.23103263345547, 4215531.524253915995359 ], [ 613494.463356385473162, 4215531.493493303656578 ], [ 613494.341240882640705, 4215530.605642917566001 ], [ 613493.720696555334143, 4215526.540249307639897 ], [ 613497.873942643171176, 4215526.143155948258936 ], [ 613497.754199402057566, 4215525.120397502556443 ], [ 613505.089202373055741, 4215524.205957531929016 ], [ 613514.938455868861638, 4215523.230051741935313 ], [ 613522.565567795420066, 4215522.767020720057189 ], [ 613528.523923606728204, 4215522.464028711430728 ] ] ] } },
{ "type": "Feature", "properties": { "Layer": "qgis ways", "PaperSpace": null, "SubClasses": "AcDbEntity:AcDbHatch", "Linetype": null, "EntityHandle": "9B", "Text": "SOLID" }, "geometry": { "type": "Polygon", "coordinates": [ [ [ 613492.095789469080046, 4215552.330780786462128 ], [ 613491.486732978955843, 4215552.486471163108945 ], [ 613489.279123160755262, 4215552.812932346016169 ], [ 613488.418528297916055, 4215552.862201167270541 ], [ 613485.389683761517517, 4215550.769635917618871 ], [ 613485.384066289290786, 4215550.592990979552269 ], [ 613483.437047362443991, 4215549.151462468318641 ], [ 613483.195521794026718, 4215549.203292170539498 ], [ 613482.92146966571454, 4215548.809572893194854 ], [ 613480.659963050973602, 4215547.017483943141997 ], [ 613480.460825933725573, 4215547.317408600822091 ], [ 613479.984924164717086, 4215546.956962808035314 ], [ 613480.260088024311699, 4215546.572526822797954 ], [ 613478.096395014203154, 4215530.721261682920158 ], [ 613478.626929322723299, 4215530.637188907712698 ], [ 613491.133117999648675, 4215530.637188907712698 ], [ 613492.675195569870993, 4215530.794021283276379 ], [ 613494.341240882640705, 4215530.605642917566001 ], [ 613493.720696555334143, 4215526.540249307639897 ], [ 613477.938381345942616, 4215527.995347826741636 ], [ 613474.692419856321067, 4215528.295418069697917 ], [ 613474.971005494473502, 4215531.176574845798314 ], [ 613475.303967591957189, 4215531.131640043109655 ], [ 613475.621380071621388, 4215534.012283097952604 ], [ 613476.505814244737849, 4215542.053109492175281 ], [ 613477.200154264457524, 4215547.20324276946485 ], [ 613477.449403857928701, 4215547.394299856387079 ], [ 613475.480678776046261, 4215549.910981835797429 ], [ 613475.430575390113518, 4215550.420927438884974 ], [ 613475.227601428632624, 4215550.294717933051288 ], [ 613474.905461726244539, 4215550.592222964391112 ], [ 613474.792932476848364, 4215550.529466778039932 ], [ 613474.232109670410864, 4215550.688432712107897 ], [ 613473.871528160059825, 4215551.163786895573139 ], [ 613473.857024117256515, 4215551.686252138577402 ], [ 613473.970255551743321, 4215551.771088940091431 ], [ 613473.806920731207356, 4215552.196197740733624 ], [ 613473.875280902488157, 4215552.260348190553486 ], [ 613473.576630107010715, 4215552.601317320950329 ], [ 613472.13549724186305, 4215554.467283450067043 ], [ 613471.68694195500575, 4215555.048068880103528 ], [ 613471.322037541423924, 4215555.391129408963025 ], [ 613469.232680800021626, 4215553.644655052572489 ], [ 613468.661291504977271, 4215553.751102993264794 ], [ 613468.779121393570676, 4215554.675700392574072 ], [ 613468.956675789318979, 4215554.675700392574072 ], [ 613469.011201735236682, 4215555.022018937394023 ], [ 613461.14158613292966, 4215556.072417752817273 ], [ 613455.610992871806957, 4215556.937659881077707 ], [ 613455.137649402022362, 4215557.405004465021193 ], [ 613455.248961779172532, 4215558.030459748581052 ], [ 613450.516431655036286, 4215558.766533577814698 ], [ 613449.902979832957499, 4215558.940617634914815 ], [ 613448.272597070899792, 4215559.209791340865195 ], [ 613448.61507172009442, 4215561.33724198769778 ], [ 613455.651097010704689, 4215559.898590931668878 ], [ 613455.821388145093806, 4215560.83145531732589 ], [ 613456.716882914304733, 4215561.235050923191011 ], [ 613459.01215587335173, 4215560.781063561327755 ], [ 613459.774520744686015, 4215560.706668432801962 ], [ 613462.129140281234868, 4215560.367107748053968 ], [ 613465.100722559378482, 4215559.963866087608039 ], [ 613465.840254039503634, 4215559.923401299864054 ], [ 613469.54705370683223, 4215559.359352171421051 ], [ 613469.62454227078706, 4215559.710550650954247 ], [ 613469.383016702486202, 4215559.762380353175104 ], [ 613469.437401708564721, 4215560.777391622774303 ], [ 613469.72590509231668, 4215560.812490124255419 ], [ 613470.786596664343961, 4215559.408635169267654 ], [ 613470.674769598990679, 4215559.367959601804614 ], [ 613471.568615429569036, 4215558.278810362331569 ], [ 613474.443340611062013, 4215560.432408288121223 ], [ 613474.508419623132795, 4215560.352083523757756 ], [ 613474.950812600320205, 4215560.36022147256881 ], [ 613474.869496282655746, 4215560.583816181868315 ], [ 613476.407056368188933, 4215561.662522598169744 ], [ 613476.676986131700687, 4215561.808721321634948 ], [ 613476.897129343240522, 4215561.779669368639588 ], [ 613477.067169170011766, 4215562.260563015937805 ], [ 613479.536176190013066, 4215564.127669808454812 ], [ 613480.024568739579991, 4215564.178619179874659 ], [ 613480.042533300351351, 4215564.305195768363774 ], [ 613482.496206690673716, 4215564.056334547698498 ], [ 613482.855493630748242, 4215563.536629078909755 ], [ 613483.456884129554965, 4215563.926864191889763 ], [ 613485.231315306155011, 4215561.528080273419619 ], [ 613484.974453388829716, 4215561.347873593680561 ], [ 613484.954792235395871, 4215560.729616305790842 ], [ 613485.412950095138513, 4215560.538331563584507 ], [ 613486.309604664915241, 4215559.537504791282117 ], [ 613486.477152588544413, 4215559.244879698380828 ], [ 613486.395450920332223, 4215558.76119751483202 ], [ 613486.812248438131064, 4215558.659629508852959 ], [ 613487.161556045874022, 4215558.910012520849705 ], [ 613489.105156068922952, 4215556.327665201388299 ], [ 613488.830932908691466, 4215556.098292062990367 ], [ 613488.781146356952377, 4215555.923041391186416 ], [ 613489.817715352983214, 4215555.846114885061979 ], [ 613489.870310641126707, 4215556.109688025899231 ], [ 613491.974978371057659, 4215555.867250668816268 ], [ 613491.974978399695829, 4215555.556989635340869 ], [ 613492.537270370288752, 4215555.472708038985729 ], [ 613492.095789469080046, 4215552.330780786462128 ] ] ] } },
{ "type": "Feature", "properties": { "Layer": "qgis ways", "PaperSpace": null, "SubClasses": "AcDbEntity:AcDbHatch", "Linetype": null, "EntityHandle": "9D", "Text": "SOLID" }, "geometry": { "type": "Polygon", "coordinates": [ [ [ 613363.987977619748563, 4215458.959291228093207 ], [ 613364.060538997990079, 4215461.692964006215334 ], [ 613364.407980459975079, 4215461.701379449106753 ], [ 613367.633215499226935, 4215464.133434429764748 ], [ 613369.49827153084334, 4215484.822979911230505 ], [ 613368.944375920691527, 4215484.881483864970505 ], [ 613368.720448136911727, 4215485.174997338093817 ], [ 613369.659894383396022, 4215485.790585936047137 ], [ 613370.103321067872457, 4215485.389809454791248 ], [ 613370.837230205186643, 4215485.883219766430557 ], [ 613370.535494052805007, 4215486.453946392983198 ], [ 613371.266006540972739, 4215487.302522817626595 ], [ 613369.766451975214295, 4215489.49007270205766 ], [ 613368.802613008883782, 4215488.831409418955445 ], [ 613368.199038007063791, 4215489.551323092542589 ], [ 613367.434903906309046, 4215488.904215654358268 ], [ 613367.675023683696054, 4215488.003970288671553 ], [ 613366.959675027406774, 4215487.443012214265764 ], [ 613366.248031104449183, 4215487.791506760753691 ], [ 613366.824012668104842, 4215492.674744681455195 ], [ 613363.346200105268508, 4215493.199621351435781 ], [ 613362.877543792827055, 4215488.059671713039279 ], [ 613362.423721768078394, 4215488.682867372408509 ], [ 613362.754824523464777, 4215489.508332115598023 ], [ 613362.004995892988518, 4215490.39133726991713 ], [ 613361.359428747789934, 4215490.314769357442856 ], [ 613361.003074910957366, 4215490.688724173232913 ], [ 613358.531963814748451, 4215489.13408680818975 ], [ 613359.101814507157542, 4215488.194102540612221 ], [ 613358.581607617205009, 4215487.977741931565106 ], [ 613358.509493206278421, 4215487.449102793820202 ], [ 613358.943588303984143, 4215486.8713304027915 ], [ 613359.610048824106343, 4215486.924599534831941 ], [ 613359.817918829503469, 4215487.091026797890663 ], [ 613360.465613478212617, 4215486.368764531798661 ], [ 613360.143945006886497, 4215486.1418352779001 ], [ 613358.195007384521887, 4215464.280866198241711 ], [ 613360.622241016360931, 4215462.066120450384915 ], [ 613361.201817614259198, 4215461.948382071219385 ], [ 613361.187052697991021, 4215458.942083326168358 ], [ 613363.987977619748563, 4215458.959291228093207 ] ] ] } },
{ "type": "Feature", "properties": { "Layer": "qgis ways", "PaperSpace": null, "SubClasses": "AcDbEntity:AcDbHatch", "Linetype": null, "EntityHandle": "9F", "Text": "SOLID" }, "geometry": { "type": "Polygon", "coordinates": [ [ [ 613445.865531694144011, 4215544.319079273380339 ], [ 613457.428122065262869, 4215542.554996696300805 ], [ 613459.154175395146012, 4215541.89467950258404 ], [ 613462.286848908988759, 4215538.215140863321722 ], [ 613465.438618425279856, 4215537.916725225746632 ], [ 613468.747925487230532, 4215540.486698457971215 ], [ 613469.32264590007253, 4215543.960796212777495 ], [ 613466.484093241742812, 4215547.852078293450177 ], [ 613463.557382200378925, 4215548.276006281375885 ], [ 613459.528730582911521, 4215545.330890225246549 ], [ 613459.502107078791596, 4215545.086643253453076 ], [ 613458.020952552906238, 4215545.668855967931449 ], [ 613457.848030274384655, 4215545.693190805613995 ], [ 613457.892485581338406, 4215546.025428610853851 ], [ 613454.976036189938895, 4215546.432529698126018 ], [ 613451.635213578352705, 4215546.900876386091113 ], [ 613449.537023154087365, 4215547.194532713852823 ], [ 613448.37699202739168, 4215547.367091335356236 ], [ 613446.803338184021413, 4215547.52068870421499 ], [ 613446.395051681320183, 4215547.567044666968286 ], [ 613445.865531694144011, 4215544.319079273380339 ] ] ] } },
{ "type": "Feature", "properties": { "Layer": "qgis ways", "PaperSpace": null, "SubClasses": "AcDbEntity:AcDbHatch", "Linetype": null, "EntityHandle": "A1", "Text": "SOLID" }, "geometry": { "type": "Polygon", "coordinates": [ [ [ 613474.971005494473502, 4215531.176574845798314 ], [ 613474.692419856321067, 4215528.295418069697917 ], [ 613442.929291106527671, 4215531.251540984027088 ], [ 613444.471148172044195, 4215535.662253508344293 ], [ 613449.796412812545896, 4215534.911885580047965 ], [ 613455.974216866889037, 4215533.983307770453393 ], [ 613458.784637472592294, 4215533.583962091244757 ], [ 613462.197962029604241, 4215533.069839123636484 ], [ 613472.121687859646045, 4215531.593385821208358 ], [ 613474.971005494473502, 4215531.176574845798314 ] ] ] } },
{ "type": "Feature", "properties": { "Layer": "qgis ways", "PaperSpace": null, "SubClasses": "AcDbEntity:AcDbHatch", "Linetype": null, "EntityHandle": "A3", "Text": "SOLID" }, "geometry": { "type": "Polygon", "coordinates": [ [ [ 613439.184090176364407, 4215532.799900586716831 ], [ 613442.929291106527671, 4215531.251540984027088 ], [ 613444.471148172044195, 4215535.662253508344293 ], [ 613445.865531694144011, 4215544.319079273380339 ], [ 613446.395051681320183, 4215547.567044666968286 ], [ 613448.272597071016207, 4215559.209791340865195 ], [ 613448.61507172009442, 4215561.33724198769778 ], [ 613449.040556939202361, 4215563.980353839695454 ], [ 613450.020325356046669, 4215566.500547617673874 ], [ 613450.888187755015679, 4215570.112067922949791 ], [ 613451.841102037811652, 4215573.179071839898825 ], [ 613453.236342307296582, 4215579.919598367065191 ], [ 613454.149231766117737, 4215583.663884839974344 ], [ 613454.975562495994382, 4215587.581424442119896 ], [ 613451.059708926011808, 4215587.866280493326485 ], [ 613450.111967662116513, 4215584.368845790624619 ], [ 613449.160750485258177, 4215580.922324074432254 ], [ 613448.668429636280052, 4215579.138510088436306 ], [ 613447.263459963607602, 4215573.823711443692446 ], [ 613446.58371550263837, 4215571.402816883288324 ], [ 613445.934064554981887, 4215567.876584818586707 ], [ 613445.578169968910515, 4215565.590444874949753 ], [ 613445.405045557999983, 4215564.527351181954145 ], [ 613445.282888622605242, 4215563.780607 ], [ 613444.748501637135632, 4215560.513904454186559 ], [ 613444.318276878097095, 4215557.883944604545832 ], [ 613443.049466168042272, 4215550.12563574872911 ], [ 613442.423254859400913, 4215546.29969306755811 ], [ 613442.327607071492821, 4215545.714999049901962 ], [ 613441.835665165446699, 4215542.707762868143618 ], [ 613441.797476432053372, 4215542.474315506406128 ], [ 613440.760980187682435, 4215536.141262911260128 ], [ 613440.602834216668271, 4215535.805233606137335 ], [ 613439.184090176364407, 4215532.799900586716831 ] ] ] } },
{ "type": "Feature", "properties": { "Layer": "qgis ways", "PaperSpace": null, "SubClasses": "AcDbEntity:AcDbHatch", "Linetype": null, "EntityHandle": "A5", "Text": "SOLID" }, "geometry": { "type": "Polygon", "coordinates": [ [ [ 613440.602834216668271, 4215535.805233606137335 ], [ 613439.184090176364407, 4215532.799900586716831 ], [ 613436.194607877056114, 4215533.557825176045299 ], [ 613435.818896544165909, 4215533.531267010606825 ], [ 613419.096702100709081, 4215535.357680718414485 ], [ 613410.512674627243541, 4215536.241267626173794 ], [ 613406.95831526373513, 4215536.617743863724172 ], [ 613402.813973524840549, 4215537.056246211752295 ], [ 613396.29572228435427, 4215537.720451048575342 ], [ 613387.637958038947545, 4215538.384655887261033 ], [ 613382.686613198253326, 4215538.708137854002416 ], [ 613373.134393686894327, 4215539.476386489346623 ], [ 613370.237226532073691, 4215539.68716680817306 ], [ 613369.896767274942249, 4215539.566891877911985 ], [ 613370.124460428371094, 4215543.004712894558907 ], [ 613372.708466807962395, 4215542.822093961760402 ], [ 613376.146267386735417, 4215542.572231771424413 ], [ 613379.100324754253961, 4215542.325698084197938 ], [ 613382.164017058676109, 4215542.1451734919101 ], [ 613389.350353439687751, 4215541.64247589558363 ], [ 613398.859177625970915, 4215540.941994104534388 ], [ 613402.946540950448252, 4215540.540460590273142 ], [ 613421.440270155202597, 4215538.384805482812226 ], [ 613428.737211693893187, 4215537.496824202127755 ], [ 613429.946895200759172, 4215537.351515019312501 ], [ 613432.843016687198542, 4215536.996050729416311 ], [ 613436.268692780286074, 4215536.573742497712374 ], [ 613436.592201330233365, 4215536.516535460948944 ], [ 613440.602834216668271, 4215535.805233606137335 ] ] ] } },
{ "type": "Feature", "properties": { "Layer": "qgis ways", "PaperSpace": null, "SubClasses": "AcDbEntity:AcDbHatch", "Linetype": null, "EntityHandle": "A7", "Text": "SOLID" }, "geometry": { "type": "Polygon", "coordinates": [ [ [ 613402.946540950448252, 4215540.540460590273142 ], [ 613403.341271996032447, 4215545.271657343022525 ], [ 613403.908125273650512, 4215551.678688034415245 ], [ 613403.938988505047746, 4215552.004127452149987 ], [ 613404.592255729832686, 4215552.196395304985344 ], [ 613404.643104113754816, 4215552.680299945175648 ], [ 613407.733256982173771, 4215551.981800297275186 ], [ 613407.819342017173767, 4215551.632587873376906 ], [ 613407.861108811805025, 4215551.625004341825843 ], [ 613408.568024881067686, 4215548.749584493227303 ], [ 613434.014810392865911, 4215542.13354168087244 ], [ 613436.353438991704024, 4215544.34870985057205 ], [ 613436.582597443135455, 4215544.322547171264887 ], [ 613436.508243037387729, 4215544.021722313016653 ], [ 613438.099294664221816, 4215543.683609721250832 ], [ 613438.178575608297251, 4215543.99003513623029 ], [ 613438.82174097141251, 4215543.846261670812964 ], [ 613438.738158947089687, 4215543.532255371101201 ], [ 613441.835665165446699, 4215542.707762868143618 ], [ 613442.327607071492821, 4215545.714999049901962 ], [ 613439.441846413654275, 4215546.508778046816587 ], [ 613439.355607139412314, 4215546.195257650688291 ], [ 613438.787953448249027, 4215546.312808388844132 ], [ 613438.900635869824328, 4215546.81344567425549 ], [ 613437.445874709053896, 4215547.200943619944155 ], [ 613437.384874344570562, 4215547.00660446844995 ], [ 613437.155625548097305, 4215547.049729720689356 ], [ 613436.083963309298269, 4215550.267325673252344 ], [ 613424.55658357962966, 4215553.283665263094008 ], [ 613414.826397125958465, 4215555.829737946391106 ], [ 613410.879131021443754, 4215556.862608840689063 ], [ 613408.562498169951141, 4215554.645553432404995 ], [ 613408.313781488337554, 4215554.589716375805438 ], [ 613405.141434023156762, 4215555.304092968814075 ], [ 613405.153922713943757, 4215555.67837346624583 ], [ 613404.463950702222064, 4215555.938445924781263 ], [ 613404.301365899271332, 4215555.926477396860719 ], [ 613400.581583939958364, 4215555.695868442766368 ], [ 613399.519104092614725, 4215550.961539032869041 ], [ 613399.184422058635391, 4215547.270639518275857 ], [ 613399.021689589950256, 4215543.908682214096189 ], [ 613398.858516111853532, 4215540.929895554669201 ], [ 613402.946540950448252, 4215540.540460590273142 ] ] ] } },
{ "type": "Feature", "properties": { "Layer": "qgis ways", "PaperSpace": null, "SubClasses": "AcDbEntity:AcDbHatch", "Linetype": null, "EntityHandle": "A9", "Text": "SOLID" }, "geometry": { "type": "Polygon", "coordinates": [ [ [ 613400.573557568946853, 4215555.695700148120522 ], [ 613400.658936988911591, 4215556.02724158205092 ], [ 613397.284950470319018, 4215556.500281834043562 ], [ 613396.493735505151562, 4215556.500281834043562 ], [ 613395.10323286568746, 4215556.703769364394248 ], [ 613394.957258754293434, 4215555.552256586030126 ], [ 613385.960446481825784, 4215556.500001342967153 ], [ 613385.960446481825784, 4215556.807364375330508 ], [ 613383.458379648742266, 4215557.132491894997656 ], [ 613383.854406090336852, 4215560.521208127960563 ], [ 613384.041305874241516, 4215560.498058195225894 ], [ 613387.224820432718843, 4215560.160757325589657 ], [ 613391.591960120829754, 4215559.700320510193706 ], [ 613395.215072849649005, 4215559.322797102853656 ], [ 613395.153816643869504, 4215558.55473546218127 ], [ 613396.516888498561457, 4215558.434871921315789 ], [ 613396.574660730198957, 4215558.886370394378901 ], [ 613397.874932821025141, 4215558.496821084991097 ], [ 613400.918206415371969, 4215558.044632879085839 ], [ 613400.658936988911591, 4215556.02724158205092 ], [ 613400.573557568946853, 4215555.695700148120522 ] ] ] } },
{ "type": "Feature", "properties": { "Layer": "qgis ways", "PaperSpace": null, "SubClasses": "AcDbEntity:AcDbHatch", "Linetype": null, "EntityHandle": "AB", "Text": "SOLID" }, "geometry": { "type": "Polygon", "coordinates": [ [ [ 613400.581583939958364, 4215555.695868442766368 ], [ 613404.301365899271332, 4215555.926477396860719 ], [ 613407.289859646465629, 4215572.101159282959998 ], [ 613407.868787648272701, 4215574.989396370947361 ], [ 613410.469863386359066, 4215588.292371093295515 ], [ 613410.532687742146663, 4215588.624879986979067 ], [ 613411.008591300924309, 4215588.565131017938256 ], [ 613411.50422789528966, 4215591.306271367706358 ], [ 613412.137794267502613, 4215594.93893024418503 ], [ 613412.66224264644552, 4215594.838271049782634 ], [ 613413.430966132204048, 4215599.157846424728632 ], [ 613413.47365584212821, 4215599.411037120036781 ], [ 613409.669685158296488, 4215600.332191243767738 ], [ 613409.516610795399174, 4215599.768645604141057 ], [ 613408.550359199172817, 4215596.189830656163394 ], [ 613408.391904521733522, 4215595.607435958459973 ], [ 613406.949142268276773, 4215588.195456 ], [ 613404.657657423987985, 4215576.337398814968765 ], [ 613402.285467859357595, 4215564.237538908608258 ], [ 613401.527019892586395, 4215561.075048748403788 ], [ 613400.985195743152872, 4215558.826008535921574 ], [ 613400.918206415371969, 4215558.044632879085839 ], [ 613400.658936988911591, 4215556.02724158205092 ], [ 613400.573557568946853, 4215555.695700148120522 ], [ 613400.581583939958364, 4215555.695868442766368 ] ] ] } },
{ "type": "Feature", "properties": { "Layer": "qgis ways", "PaperSpace": null, "SubClasses": "AcDbEntity:AcDbHatch", "Linetype": null, "EntityHandle": "AD", "Text": "SOLID" }, "geometry": { "type": "Polygon", "coordinates": [ [ [ 613339.597808069549501, 4215544.649979920126498 ], [ 613339.651526245288551, 4215545.488174190744758 ], [ 613338.418179325759411, 4215545.567216901108623 ], [ 613338.350157519453205, 4215546.236497808247805 ], [ 613339.739065185654908, 4215547.168972443789244 ], [ 613339.455474222777411, 4215550.304112230427563 ], [ 613340.778778723324649, 4215552.756597116589546 ], [ 613339.673672178643756, 4215602.386238911189139 ], [ 613337.198916895547882, 4215604.849902263842523 ], [ 613337.410344611154869, 4215606.43216395098716 ], [ 613337.315741245402023, 4215608.705184281803668 ], [ 613336.028974570333958, 4215611.070547795854509 ], [ 613336.373601325438358, 4215612.616921826265752 ], [ 613333.553846168681048, 4215612.925288798287511 ], [ 613333.655583465122618, 4215610.916136895306408 ], [ 613332.620273075299338, 4215608.899067061953247 ], [ 613332.179886377416551, 4215606.257600271143019 ], [ 613332.545836289878935, 4215605.059452584944665 ], [ 613332.53598782455083, 4215604.90493539813906 ], [ 613330.0811271261191, 4215601.78198292478919 ], [ 613331.811883756075986, 4215552.599853599444032 ], [ 613333.526989916805178, 4215550.362187029793859 ], [ 613334.483505464973859, 4215547.681162465363741 ], [ 613334.463808534666896, 4215547.372128088027239 ], [ 613335.832176779047586, 4215546.287049844861031 ], [ 613335.783419387182221, 4215545.869057643227279 ], [ 613334.544344474561512, 4215545.859811243601143 ], [ 613334.455423691542819, 4215544.925148483365774 ], [ 613339.597808069549501, 4215544.649979920126498 ] ], [ [ 613406.055924592539668, 4215372.952086508274078 ], [ 613406.465500631835312, 4215368.527177114970982 ], [ 613408.275814917986281, 4215368.685623396188021 ], [ 613408.498872906551696, 4215365.959678755141795 ], [ 613405.788880942156538, 4215365.688870542682707 ], [ 613405.99641644465737, 4215362.802343546412885 ], [ 613406.340578193427064, 4215358.015537588857114 ], [ 613406.187823511427268, 4215357.735311641357839 ], [ 613406.373675898183137, 4215357.381906437687576 ], [ 613404.890758435823955, 4215357.246186332777143 ], [ 613405.018030498293228, 4215355.369164613075554 ], [ 613403.314475093269721, 4215354.310270798392594 ], [ 613402.515064390492626, 4215355.376144458539784 ], [ 613402.158849873347208, 4215360.32195636164397 ], [ 613398.694179417914711, 4215359.904137182980776 ], [ 613398.300929334247485, 4215363.563299461267889 ], [ 613399.526537867030129, 4215363.673328916542232 ], [ 613399.097895030281506, 4215367.436813758686185 ], [ 613399.199041496613063, 4215368.837515969760716 ], [ 613401.100169889978133, 4215368.994597808457911 ], [ 613401.284020481049083, 4215369.254623733460903 ], [ 613400.890301774954423, 4215372.610554298385978 ], [ 613406.055924592539668, 4215372.952086508274078 ] ], [ [ 613414.298281128751114, 4215354.751858559437096 ], [ 613410.678403366706334, 4215354.386927435174584 ], [ 613406.024962968891487, 4215348.623914455063641 ], [ 613406.827732380246744, 4215341.459982841275632 ], [ 613415.63976171403192, 4215342.279467998072505 ], [ 613415.718834699480794, 4215342.279467998072505 ], [ 613415.915100110461935, 4215340.084543573670089 ], [ 613415.836981117958203, 4215340.447145261801779 ], [ 613407.365102334646508, 4215339.673791673965752 ], [ 613401.142415594542399, 4215339.251183865591884 ], [ 613400.789211165625602, 4215341.337725766934454 ], [ 613400.064676821813919, 4215348.63077715691179 ], [ 613403.349447138723917, 4215353.26399858482182 ], [ 613403.314475093269721, 4215354.310270798392594 ], [ 613405.018030498293228, 4215355.369164613075554 ], [ 613414.353647472569719, 4215356.097174140624702 ], [ 613414.298281128751114, 4215354.751858559437096 ] ], [ [ 613366.682252748170868, 4215523.335151719860733 ], [ 613370.832677424419671, 4215523.145362253300846 ], [ 613370.915895898360759, 4215536.746321354061365 ], [ 613369.896767274942249, 4215539.566891877911985 ], [ 613366.328780721290968, 4215539.256985719315708 ], [ 613366.826503930496983, 4215536.756849151104689 ], [ 613366.682252748170868, 4215523.335151719860733 ] ], [ [ 613366.328780721290968, 4215539.256985719315708 ], [ 613369.896767274942249, 4215539.566891877911985 ], [ 613370.124460428371094, 4215543.004712894558907 ], [ 613366.23008281737566, 4215543.24135456699878 ], [ 613366.328780721290968, 4215539.256985719315708 ] ], [ [ 613366.23008281737566, 4215543.24135456699878 ], [ 613370.124460428371094, 4215543.004712894558907 ], [ 613371.690925818518735, 4215563.697274095378816 ], [ 613372.128126923576929, 4215567.832388536073267 ], [ 613358.956867584493011, 4215570.126952692866325 ], [ 613358.723088501370512, 4215566.187107261270285 ], [ 613368.478392841643654, 4215564.824851563200355 ], [ 613366.23008281737566, 4215543.24135456699878 ] ], [ [ 613366.23008281737566, 4215543.24135456699878 ], [ 613366.328780721290968, 4215539.256985719315708 ], [ 613352.129556956351735, 4215539.754914955236018 ], [ 613352.16205934935715, 4215540.47519947309047 ], [ 613344.82184976444114, 4215540.844332600012422 ], [ 613345.028555894270539, 4215544.368090559728444 ], [ 613353.319091612123884, 4215543.940059908665717 ], [ 613366.23008281737566, 4215543.24135456699878 ] ], [ [ 613342.568608472123742, 4215540.957705432549119 ], [ 613342.568608472123742, 4215537.484295562840998 ], [ 613342.408683968475088, 4215534.636838496662676 ], [ 613342.120607263175771, 4215532.876774001866579 ], [ 613340.768182964297011, 4215531.484466668218374 ], [ 613340.563691300689243, 4215531.091727497056127 ], [ 613340.268139178515412, 4215527.380571583285928 ], [ 613340.44257768697571, 4215526.989745081402361 ], [ 613342.847037875792012, 4215524.574516157619655 ], [ 613343.208240692852996, 4215524.399861603043973 ], [ 613348.249241638346575, 4215523.990478201769292 ], [ 613348.679501147358678, 4215524.122629942372441 ], [ 613350.211743883206509, 4215526.060370739549398 ], [ 613350.353367920499295, 4215526.444235135801136 ], [ 613350.301666315644979, 4215529.552562638185918 ], [ 613350.224214599700645, 4215529.943965055048466 ], [ 613349.618312264443375, 4215531.510713621042669 ], [ 613349.247087678522803, 4215532.470630023628473 ], [ 613346.712643489125185, 4215533.071462392807007 ], [ 613346.181577345938422, 4215534.251475876197219 ], [ 613345.233004904352129, 4215534.301970521919429 ], [ 613345.348277907585725, 4215535.649215736426413 ], [ 613345.851308460347354, 4215535.610658195801079 ], [ 613345.875118160271086, 4215537.193625632673502 ], [ 613344.666615956579335, 4215537.248856593854725 ], [ 613344.82184976444114, 4215540.844332600012422 ], [ 613342.572800847585313, 4215540.957494493573904 ], [ 613342.568608472123742, 4215540.957705432549119 ] ] ] } },
{ "type": "Feature", "properties": { "Layer": "qgis ways", "PaperSpace": null, "SubClasses": "AcDbEntity:AcDbHatch", "Linetype": null, "EntityHandle": "B7", "Text": "SOLID" }, "geometry": { "type": "Polygon", "coordinates": [ [ [ 613476.109350533457473, 4215340.19355733320117 ], [ 613473.352952618268318, 4215337.154866261407733 ], [ 613472.514554800814949, 4215337.200084637850523 ], [ 613472.546677686157636, 4215336.757392925210297 ], [ 613473.450108810444362, 4215336.666199978441 ], [ 613473.883864786825143, 4215336.367060736753047 ], [ 613473.912696081446484, 4215329.319466587156057 ], [ 613473.205382594605908, 4215328.499548008665442 ], [ 613472.631330255651847, 4215328.515383851714432 ], [ 613472.652019900036976, 4215327.653292248025537 ], [ 613472.780486871954054, 4215327.29671960324049 ], [ 613473.66244080895558, 4215327.228209403343499 ], [ 613478.529939403524622, 4215321.792267441749573 ], [ 613481.471251876908354, 4215321.887850420549512 ], [ 613483.703675774857402, 4215319.484697114676237 ], [ 613483.866927354014479, 4215315.746936596930027 ], [ 613482.024977845721878, 4215313.83171396329999 ], [ 613478.159960560151376, 4215313.894154037348926 ], [ 613478.159960560151376, 4215312.884703125804663 ], [ 613476.369716991204768, 4215310.792172282002866 ], [ 613472.857865770347416, 4215310.682695670984685 ], [ 613472.512687736307271, 4215304.145828672684729 ], [ 613470.303809564793482, 4215304.375418870709836 ], [ 613470.57585489959456, 4215310.691587636247277 ], [ 613467.179884301382117, 4215310.829713493585587 ], [ 613467.165197266382165, 4215311.095231436192989 ], [ 613466.900480431155302, 4215311.102554131299257 ], [ 613465.145648533478379, 4215313.095249146223068 ], [ 613465.029878693399951, 4215313.694952858611941 ], [ 613462.309772826149128, 4215313.527178397402167 ], [ 613461.60693322494626, 4215313.657083798199892 ], [ 613460.114360595238395, 4215315.554153546690941 ], [ 613460.020650491118431, 4215316.153247036039829 ], [ 613459.991797667578794, 4215316.517705757170916 ], [ 613459.802648073993623, 4215318.906976904720068 ], [ 613460.156096841441467, 4215319.714566943235695 ], [ 613461.586785266175866, 4215321.133058249950409 ], [ 613462.00617676996626, 4215320.722905431874096 ], [ 613462.03379665245302, 4215321.166863198392093 ], [ 613464.797257216414437, 4215321.375848128460348 ], [ 613464.795637760660611, 4215322.12696226593107 ], [ 613469.688232343643904, 4215327.337842189706862 ], [ 613470.571991530130617, 4215327.335553027689457 ], [ 613470.55563379614614, 4215327.692438621073961 ], [ 613470.44352455844637, 4215327.692125673405826 ], [ 613470.401959476876073, 4215328.598973702639341 ], [ 613469.959779008990154, 4215328.589081447571516 ], [ 613469.009968807455152, 4215329.41053299978375 ], [ 613468.90767971216701, 4215336.195070221088827 ], [ 613469.50158977706451, 4215336.907665763050318 ], [ 613470.163957854849286, 4215336.889393633231521 ], [ 613470.152710408437997, 4215337.287328915670514 ], [ 613469.511819517007098, 4215337.282918298617005 ], [ 613466.619882377795875, 4215340.366077703423798 ], [ 613476.109350533457473, 4215340.19355733320117 ] ], [ [ 613459.802648073993623, 4215318.906976904720068 ], [ 613459.702417373890057, 4215318.906878897920251 ], [ 613459.674181102309376, 4215319.26354955136776 ], [ 613458.898814806248993, 4215319.26354955136776 ], [ 613456.617208572570235, 4215319.877570413053036 ], [ 613448.338536007679068, 4215319.877570413053036 ], [ 613444.06206785235554, 4215319.877570413053036 ], [ 613440.348680499242619, 4215319.481889829039574 ], [ 613440.097216939087957, 4215316.090069484896958 ], [ 613443.952212410746142, 4215315.867003622464836 ], [ 613443.952212410746142, 4215314.8871705904603 ], [ 613446.863580068107694, 4215314.932610278949142 ], [ 613446.899522334337234, 4215315.433737122453749 ], [ 613458.287222969927825, 4215315.642385701648891 ], [ 613459.053873711498454, 4215316.144204423762858 ], [ 613459.08346544241067, 4215316.507385345175862 ], [ 613459.991797667578794, 4215316.517705757170916 ], [ 613459.802648073993623, 4215318.906976904720068 ] ] ] } },
{ "type": "Feature", "properties": { "Layer": "qgis ways", "PaperSpace": null, "SubClasses": "AcDbEntity:AcDbHatch", "Linetype": null, "EntityHandle": "BA", "Text": "SOLID" }, "geometry": { "type": "Polygon", "coordinates": [ [ [ 613433.083050627959892, 4215317.922223925590515 ], [ 613428.116182256257161, 4215318.514753730967641 ], [ 613421.116613356280141, 4215321.916671781800687 ], [ 613421.162522434955463, 4215321.600407807156444 ], [ 613418.220636926824227, 4215321.49125905521214 ], [ 613418.21739953989163, 4215321.49067148566246 ], [ 613418.174771949183196, 4215321.851148873567581 ], [ 613418.082424580934457, 4215321.851148873567581 ], [ 613417.397713385755196, 4215320.177378863096237 ], [ 613412.802367527852766, 4215309.227092006243765 ], [ 613415.473987992387265, 4215309.926288090646267 ], [ 613419.534211413934827, 4215319.558460238389671 ], [ 613429.314748659613542, 4215314.797475301660597 ], [ 613433.502774494001642, 4215315.148680711165071 ], [ 613433.083050627959892, 4215317.922223925590515 ] ], [ [ 613440.348680499242619, 4215319.481889829039574 ], [ 613440.097216939087957, 4215316.090069484896958 ], [ 613438.915736510185525, 4215314.160491645336151 ], [ 613436.943313689320348, 4215313.010338103398681 ], [ 613433.502774494001642, 4215315.148680711165071 ], [ 613433.070305456290953, 4215317.909770084545016 ], [ 613435.028607698739506, 4215320.557426697574556 ], [ 613435.279690160416067, 4215320.37246273830533 ], [ 613437.740145177696832, 4215320.92937243077904 ], [ 613437.821873038774356, 4215321.149582513608038 ], [ 613440.348680499242619, 4215319.481889829039574 ] ] ] } },
{ "type": "Feature", "properties": { "Layer": "qgis ways", "PaperSpace": null, "SubClasses": "AcDbEntity:AcDbHatch", "Linetype": null, "EntityHandle": "BD", "Text": "SOLID" }, "geometry": { "type": "Polygon", "coordinates": [ [ [ 613495.739471237990074, 4215342.965581242926419 ], [ 613492.944932945654728, 4215340.148845097981393 ], [ 613492.418047230108641, 4215340.273831193335354 ], [ 613450.538748194579966, 4215339.971158021129668 ], [ 613447.365956293419003, 4215342.731606558896601 ], [ 613447.114547003176995, 4215370.793195517733693 ], [ 613447.093724243459292, 4215378.945082662627101 ], [ 613446.625136090675369, 4215407.145204401575029 ], [ 613446.924197245738469, 4215407.578760048374534 ], [ 613448.957020472502336, 4215409.435740592889488 ], [ 613458.570802767761052, 4215409.74510873388499 ], [ 613463.161990478518419, 4215409.860582171007991 ], [ 613466.032060438999906, 4215409.835024308413267 ], [ 613468.081144862459041, 4215412.053796801716089 ], [ 613472.945731757790782, 4215412.184685316868126 ], [ 613475.249808209366165, 4215409.978367901407182 ], [ 613492.005499368766323, 4215410.245123447850347 ], [ 613494.200658794958144, 4215408.202145538292825 ], [ 613494.725976394605823, 4215407.40841843560338 ], [ 613495.207707701832987, 4215379.385029305703938 ], [ 613495.371233816957101, 4215371.604740280658007 ], [ 613495.739471237990074, 4215342.965581242926419 ] ], [ [ 613453.385744725354016, 4215402.188778503797948 ], [ 613465.599524270859547, 4215402.381139793433249 ], [ 613465.755085197044536, 4215392.899094576947391 ], [ 613453.538848084281199, 4215392.618430715054274 ], [ 613453.385744725354016, 4215402.188778503797948 ] ], [ [ 613453.538497882778756, 4215387.84643042460084 ], [ 613465.800083251553588, 4215388.17002512793988 ], [ 613465.89315131935291, 4215378.822264443151653 ], [ 613453.723491245997138, 4215378.628682703711092 ], [ 613453.538497882778756, 4215387.84643042460084 ] ], [ [ 613453.835722192074172, 4215371.55593372322619 ], [ 613466.057488830410875, 4215372.035278373397887 ], [ 613466.134641079232097, 4215362.908884347416461 ], [ 613453.944764445535839, 4215362.782139761373401 ], [ 613453.835722192074172, 4215371.55593372322619 ] ], [ [ 613453.918668157071806, 4215357.87829583697021 ], [ 613466.199241303256713, 4215358.090902098454535 ], [ 613466.266563284210861, 4215348.611297779716551 ], [ 613454.010507441358641, 4215348.486383867450058 ], [ 613453.918668157071806, 4215357.87829583697021 ] ], [ [ 613470.234698029584251, 4215378.862530067563057 ], [ 613472.180195951485075, 4215378.881701748818159 ], [ 613474.717528252396733, 4215376.245160752907395 ], [ 613474.885677754064091, 4215374.413025585003197 ], [ 613472.24053757044021, 4215371.818621099926531 ], [ 613470.342262112768367, 4215371.700945123098791 ], [ 613467.967527233646251, 4215374.165141263045371 ], [ 613467.884782036533579, 4215376.343442206270993 ], [ 613470.234698029584251, 4215378.862530067563057 ] ], [ [ 613476.500959950615652, 4215372.077776836231351 ], [ 613489.002744850586168, 4215372.306356493383646 ], [ 613489.002744850586168, 4215363.22041664365679 ], [ 613476.666965536307544, 4215362.971017554402351 ], [ 613476.500959950615652, 4215372.077776836231351 ] ], [ [ 613476.6899038546253, 4215358.242558328434825 ], [ 613489.145072570885532, 4215358.242558328434825 ], [ 613489.258396344026551, 4215348.969458022154868 ], [ 613476.716792713501491, 4215348.896628317423165 ], [ 613476.6899038546253, 4215358.242558328434825 ] ], [ [ 613476.288288235547952, 4215388.23337878100574 ], [ 613488.807832129881717, 4215388.306818714365363 ], [ 613488.883141203550622, 4215379.114197756163776 ], [ 613476.424246992450207, 4215378.840246362611651 ], [ 613476.288288235547952, 4215388.23337878100574 ] ], [ [ 613476.022164438269101, 4215402.46839976683259 ], [ 613488.529071639757603, 4215402.46839976683259 ], [ 613488.697883650078438, 4215393.081870122812688 ], [ 613476.264735525706783, 4215392.939762366004288 ], [ 613476.022164438269101, 4215402.46839976683259 ] ] ] } },
{ "type": "Feature", "properties": { "Layer": "qgis ways", "PaperSpace": null, "SubClasses": "AcDbEntity:AcDbHatch", "Linetype": null, "EntityHandle": "C8", "Text": "SOLID" }, "geometry": { "type": "Polygon", "coordinates": [ [ [ 613353.319091612123884, 4215543.940059908665717 ], [ 613354.808248054352589, 4215575.288209485821426 ], [ 613355.769295739592053, 4215591.792072835378349 ], [ 613356.138023699168116, 4215597.456532110460103 ], [ 613356.470544787123799, 4215602.061536052264273 ], [ 613356.770872188732028, 4215605.840958812274039 ], [ 613356.989789255079813, 4215609.081799711100757 ], [ 613364.858323077554815, 4215608.087661592289805 ], [ 613364.568138891947456, 4215605.245642786845565 ], [ 613362.128651292994618, 4215605.586496553383768 ], [ 613361.255011670757085, 4215596.423293420113623 ], [ 613360.659693081281148, 4215590.149194332771003 ], [ 613360.004309011390433, 4215583.451515067368746 ], [ 613359.190029254648834, 4215575.015403057448566 ], [ 613358.956867584493011, 4215570.126952692866325 ], [ 613358.723088501370512, 4215566.187107261270285 ], [ 613357.237857042811811, 4215543.708261394873261 ], [ 613353.319091612123884, 4215543.940059908665717 ] ] ] } },
{ "type": "Feature", "properties": { "Layer": "qgis ways", "PaperSpace": null, "SubClasses": "AcDbEntity:AcDbHatch", "Linetype": null, "EntityHandle": "CA", "Text": "SOLID" }, "geometry": { "type": "Polygon", "coordinates": [ [ [ 613445.291557959513739, 4215563.792884436435997 ], [ 613443.754155088914558, 4215564.086559464223683 ], [ 613443.665627448819578, 4215563.631379401311278 ], [ 613443.360101101105101, 4215563.690480760298669 ], [ 613443.434548428864218, 4215564.050638453103602 ], [ 613441.744013424147852, 4215564.48623491358012 ], [ 613441.6724611351965, 4215564.197448751889169 ], [ 613441.449559947592206, 4215564.252676781266928 ], [ 613441.612060189596377, 4215564.908530307002366 ], [ 613440.976197112584487, 4215567.578382166102529 ], [ 613416.295203819056042, 4215575.635838788002729 ], [ 613413.777424599276856, 4215573.657676923088729 ], [ 613408.054123868350871, 4215574.916540932841599 ], [ 613407.868787648272701, 4215574.989396370947361 ], [ 613407.289859646465629, 4215572.101159282959998 ], [ 613408.338008257444017, 4215571.893596108071506 ], [ 613412.592755878926255, 4215570.723102548159659 ], [ 613412.751164777204394, 4215570.465530166402459 ], [ 613413.553588280454278, 4215567.670569812878966 ], [ 613438.454539050813764, 4215559.594240791164339 ], [ 613440.800114509649575, 4215561.631504802964628 ], [ 613441.019609117414802, 4215561.562527763657272 ], [ 613440.937156867235899, 4215561.29248177818954 ], [ 613442.656365316477604, 4215560.945956520736217 ], [ 613442.716489714337513, 4215561.179981428198516 ], [ 613443.050631077145226, 4215561.111936124041677 ], [ 613442.98704271146562, 4215560.880306856706738 ], [ 613444.930642575025558, 4215560.47601718083024 ], [ 613445.291557959513739, 4215563.792884436435997 ] ] ] } },
{ "type": "Feature", "properties": { "Layer": "qgis ways", "PaperSpace": null, "SubClasses": "AcDbEntity:AcDbHatch", "Linetype": null, "EntityHandle": "CC", "Text": "SOLID" }, "geometry": { "type": "Polygon", "coordinates": [ [ [ 613448.668429638724774, 4215579.138510097749531 ], [ 613445.222012105514295, 4215580.072426628321409 ], [ 613442.55126527172979, 4215578.581976411864161 ], [ 613418.512877007131465, 4215585.658810719847679 ], [ 613418.384410032769665, 4215586.015383370220661 ], [ 613417.056204537744634, 4215587.580541293136775 ], [ 613411.634907771833241, 4215588.650738016702235 ], [ 613411.56952552718576, 4215588.146361817605793 ], [ 613410.469863379141316, 4215588.292371056042612 ], [ 613410.532687742146663, 4215588.624879986979067 ], [ 613411.008591300924309, 4215588.565131017938256 ], [ 613411.504227895406075, 4215591.306271367706358 ], [ 613417.514943037414923, 4215589.959305471740663 ], [ 613417.603301799157634, 4215590.417485147714615 ], [ 613419.348919520969503, 4215591.398049967363477 ], [ 613444.113931745640002, 4215584.656711555086076 ], [ 613446.380952154751867, 4215582.93685500882566 ], [ 613446.191076245973818, 4215582.239873056299984 ], [ 613445.644463370554149, 4215582.330912487581372 ], [ 613445.507378506707028, 4215581.766144834458828 ], [ 613449.160750485258177, 4215580.922324074432254 ], [ 613448.668429638724774, 4215579.138510097749531 ] ] ] } },
{ "type": "Feature", "properties": { "Layer": "qgis ways", "PaperSpace": null, "SubClasses": "AcDbEntity:AcDbHatch", "Linetype": null, "EntityHandle": "CE", "Text": "SOLID" }, "geometry": { "type": "Polygon", "coordinates": [ [ [ 613454.975562495994382, 4215587.581424442119896 ], [ 613470.111031705397181, 4215584.231515963561833 ], [ 613472.497262347722426, 4215580.529101411812007 ], [ 613473.452788975439034, 4215580.540316046215594 ], [ 613475.713645288604312, 4215576.601720556616783 ], [ 613484.448156625265256, 4215574.820386126637459 ], [ 613488.35944251564797, 4215576.971110737882555 ], [ 613489.185355465742759, 4215576.547046809457242 ], [ 613492.343627708381973, 4215578.633446947671473 ], [ 613493.028906886931509, 4215582.066679363138974 ], [ 613493.048658434534445, 4215582.684704823419452 ], [ 613491.509816013043746, 4215585.715987884439528 ], [ 613490.05804276606068, 4215585.938514577224851 ], [ 613490.014081086032093, 4215586.021993611939251 ], [ 613490.122293565422297, 4215586.613916520960629 ], [ 613488.296179707744159, 4215589.632787713780999 ], [ 613487.717881102580577, 4215589.8147162059322 ], [ 613487.908724512555636, 4215591.308974747546017 ], [ 613486.361417142674327, 4215594.075389755889773 ], [ 613482.735378110664897, 4215594.746062046848238 ], [ 613482.499820589553565, 4215594.756986048072577 ], [ 613479.411744275013916, 4215592.887318377383053 ], [ 613479.237817627727054, 4215591.477791948243976 ], [ 613478.48605430254247, 4215591.625224728137255 ], [ 613475.866008089040406, 4215590.493754693306983 ], [ 613475.169833533000201, 4215589.433401011861861 ], [ 613474.139336569234729, 4215589.760435597971082 ], [ 613471.235917162848637, 4215587.732936818152666 ], [ 613471.055682619451545, 4215587.677366058342159 ], [ 613471.040025309775956, 4215587.53747804556042 ], [ 613457.099902523448691, 4215590.607751249335706 ], [ 613457.019605223555118, 4215590.168230296112597 ], [ 613456.317113058757968, 4215590.323022270575166 ], [ 613456.419494898174889, 4215590.761846087872982 ], [ 613455.654681869782507, 4215590.84234172385186 ], [ 613454.975562495994382, 4215587.581424442119896 ] ] ] } },
{ "type": "Feature", "properties": { "Layer": "qgis ways", "PaperSpace": null, "SubClasses": "AcDbEntity:AcDbHatch", "Linetype": null, "EntityHandle": "D0", "Text": "SOLID" }, "geometry": { "type": "Polygon", "coordinates": [ [ [ 613382.164017058676109, 4215542.1451734919101 ], [ 613382.260024805087596, 4215545.138601830229163 ], [ 613382.281590164755471, 4215545.658409431576729 ], [ 613383.458379648742266, 4215557.132491894997656 ], [ 613383.854406090336852, 4215560.521208127960563 ], [ 613385.247290180530399, 4215572.219366225413978 ], [ 613381.970369830960408, 4215572.513265646062791 ], [ 613381.503429077798501, 4215568.456004021689296 ], [ 613379.693702902528457, 4215552.968851318582892 ], [ 613379.172297488432378, 4215548.50201769080013 ], [ 613378.872587500023656, 4215545.907972431741655 ], [ 613379.099971946910955, 4215542.321247613057494 ], [ 613382.164017058676109, 4215542.1451734919101 ] ] ] } },
{ "type": "Feature", "properties": { "Layer": "qgis ways", "PaperSpace": null, "SubClasses": "AcDbEntity:AcDbHatch", "Linetype": null, "EntityHandle": "D2", "Text": "SOLID" }, "geometry": { "type": "Polygon", "coordinates": [ [ [ 613450.171035624807701, 4215501.872820638120174 ], [ 613451.390819825348444, 4215515.269149897620082 ], [ 613453.105560068855993, 4215518.414254313334823 ], [ 613482.911528155789711, 4215516.475487188436091 ], [ 613485.461686449474655, 4215513.655160192400217 ], [ 613483.353943239548244, 4215483.327370662242174 ], [ 613480.258811342646368, 4215479.587293202988803 ], [ 613469.870971487951465, 4215480.291546288877726 ], [ 613469.220314661855809, 4215470.412571131251752 ], [ 613465.344399107852951, 4215470.659297996200621 ], [ 613466.047921663383022, 4215480.594549600966275 ], [ 613451.489403915358707, 4215481.473738833330572 ], [ 613450.042787106242031, 4215481.728238151408732 ], [ 613448.783557709306479, 4215483.85862182173878 ], [ 613449.949845612747595, 4215498.601231577806175 ], [ 613450.171035624807701, 4215501.872820638120174 ] ] ] } },
{ "type": "Feature", "properties": { "Layer": "qgis ways", "PaperSpace": null, "SubClasses": "AcDbEntity:AcDbHatch", "Linetype": null, "EntityHandle": "D4", "Text": "SOLID" }, "geometry": { "type": "Polygon", "coordinates": [ [ [ 613536.063635312719271, 4215490.677490252070129 ], [ 613534.936685398453847, 4215471.86661709100008 ], [ 613537.305787897435948, 4215466.701152919791639 ], [ 613537.526410962338559, 4215463.216117765754461 ], [ 613534.138048975379206, 4215463.241422820836306 ], [ 613534.162008285755292, 4215465.105658850632608 ], [ 613534.466878084349446, 4215466.505780956707895 ], [ 613532.858869608608074, 4215470.537253745831549 ], [ 613525.319725707289763, 4215471.685587614774704 ], [ 613524.169529090053402, 4215472.581385269761086 ], [ 613523.89724988641683, 4215473.002048334106803 ], [ 613524.821120479260571, 4215488.065398742444813 ], [ 613525.275977574754506, 4215492.514056495390832 ], [ 613529.180321998195723, 4215492.029441276565194 ], [ 613529.180321998195723, 4215492.008404383435845 ], [ 613529.575069512357004, 4215491.982430833391845 ], [ 613533.084980323910713, 4215491.543151983059943 ], [ 613536.063635312719271, 4215490.677490252070129 ] ] ] } },
{ "type": "Feature", "properties": { "Layer": "qgis ways", "PaperSpace": null, "SubClasses": "AcDbEntity:AcDbHatch", "Linetype": null, "EntityHandle": "D6", "Text": "SOLID" }, "geometry": { "type": "Polygon", "coordinates": [ [ [ 613511.645288267172873, 4215493.90407529566437 ], [ 613511.3102179603884, 4215492.379992423579097 ], [ 613501.553499762085266, 4215493.475262676365674 ], [ 613501.541075809742324, 4215495.037667880766094 ], [ 613511.645288267172873, 4215493.90407529566437 ] ] ] } },
{ "type": "Feature", "properties": { "Layer": "qgis ways", "PaperSpace": null, "SubClasses": "AcDbEntity:AcDbHatch", "Linetype": null, "EntityHandle": "D8", "Text": "SOLID" }, "geometry": { "type": "Polygon", "coordinates": [ [ [ 613390.992458868771791, 4215524.385921240784228 ], [ 613386.551776779699139, 4215520.986052107997239 ], [ 613385.517782118404284, 4215511.05693931132555 ], [ 613384.302940724184737, 4215503.178257134743035 ], [ 613383.269342343788594, 4215492.027459646575153 ], [ 613381.707349833799526, 4215490.513174176216125 ], [ 613366.824012668104842, 4215492.674744681455195 ], [ 613363.346200105268508, 4215493.199621351435781 ], [ 613360.351160274585709, 4215493.651637241244316 ], [ 613351.019199207657948, 4215495.034465681761503 ], [ 613348.884830293129198, 4215497.295452446676791 ], [ 613351.293529434246011, 4215521.371838252991438 ], [ 613351.260001393500715, 4215521.771446181461215 ], [ 613350.90436437621247, 4215522.126924241892993 ], [ 613352.521393808652647, 4215524.029416647739708 ], [ 613366.682252748170868, 4215523.335151719860733 ], [ 613370.832677424419671, 4215523.145362253300846 ], [ 613384.855393202160485, 4215522.123132485896349 ], [ 613389.344112382968888, 4215525.849234473891556 ], [ 613390.992458868771791, 4215524.385921240784228 ] ], [ [ 613371.757189503870904, 4215519.963353861123323 ], [ 613375.500351566704921, 4215519.611442603170872 ], [ 613373.102162181399763, 4215497.649408637546003 ], [ 613369.716613736585714, 4215498.051494818180799 ], [ 613371.757189503870904, 4215519.963353861123323 ] ], [ [ 613360.010605181450956, 4215521.154961979947984 ], [ 613363.749172786716372, 4215520.716886868700385 ], [ 613361.319179428159259, 4215495.802324572578073 ], [ 613357.369537011138164, 4215496.274993414990604 ], [ 613358.246840193402022, 4215504.142142251133919 ], [ 613352.379029648145661, 4215504.876044060103595 ], [ 613353.465580879244953, 4215516.088221208192408 ], [ 613359.349648755043745, 4215515.514307625591755 ], [ 613360.010605181450956, 4215521.154961979947984 ] ] ] } },
{ "type": "Feature", "properties": { "Layer": "qgis ways", "PaperSpace": null, "SubClasses": "AcDbEntity:AcDbHatch", "Linetype": null, "EntityHandle": "DC", "Text": "SOLID" }, "geometry": { "type": "Polygon", "coordinates": [ [ [ 613385.247290180530399, 4215572.219366225413978 ], [ 613392.183882937999442, 4215571.604191373102367 ], [ 613392.455147820175625, 4215571.744212932884693 ], [ 613395.604263645480387, 4215574.433307549916208 ], [ 613397.062725833500735, 4215588.921836543828249 ], [ 613394.092174714547582, 4215592.734787437133491 ], [ 613377.108417595503852, 4215594.948111681267619 ], [ 613373.115297979908064, 4215591.845310199074447 ], [ 613371.606648921966553, 4215577.081263354048133 ], [ 613374.387433696188964, 4215573.261187967844307 ], [ 613381.970369830960408, 4215572.513265646062791 ], [ 613385.247290180530399, 4215572.219366225413978 ] ] ] } },
{ "type": "Feature", "properties": { "Layer": "qgis ways", "PaperSpace": null, "SubClasses": "AcDbEntity:AcDbHatch", "Linetype": null, "EntityHandle": "DE", "Text": "SOLID" }, "geometry": { "type": "Polygon", "coordinates": [ [ [ 613344.82184976444114, 4215540.844332600012422 ], [ 613345.028555894270539, 4215544.368090559728444 ], [ 613318.328038657084107, 4215545.745081432163715 ], [ 613318.138757422333583, 4215542.121275582350791 ], [ 613321.326858478481881, 4215541.850843984633684 ], [ 613321.85726048448123, 4215541.815670299343765 ], [ 613327.621429751161486, 4215541.624243921600282 ], [ 613328.524884016835131, 4215541.553073775023222 ], [ 613332.140717682545073, 4215541.482801201753318 ], [ 613332.11315459490288, 4215541.134598549455404 ], [ 613334.654824072145857, 4215540.957608154974878 ], [ 613334.668539464473724, 4215541.305866907350719 ], [ 613339.065359085449018, 4215541.144490563310683 ], [ 613342.572800847585313, 4215540.957494493573904 ], [ 613344.82184976444114, 4215540.844332600012422 ] ] ] } },
{ "type": "Feature", "properties": { "Layer": "qgis ways", "PaperSpace": null, "SubClasses": "AcDbEntity:AcDbHatch", "Linetype": null, "EntityHandle": "E0", "Text": "SOLID" }, "geometry": { "type": "Polygon", "coordinates": [ [ [ 613334.654824072145857, 4215540.957608154974878 ], [ 613334.518596268375404, 4215537.878143599256873 ], [ 613335.84828371135518, 4215537.810245860368013 ], [ 613334.909374698065221, 4215523.385912112891674 ], [ 613334.627834296785295, 4215518.947707359679043 ], [ 613334.344000646728091, 4215514.512625416740775 ], [ 613334.489798354450613, 4215511.768834876827896 ], [ 613335.031622503767721, 4215509.05666512530297 ], [ 613335.225093327811919, 4215496.09651783760637 ], [ 613335.283659376087599, 4215490.536251955665648 ], [ 613335.301917165401392, 4215485.862546197138727 ], [ 613335.335830788244493, 4215475.309412163682282 ], [ 613335.356778734829277, 4215469.621073678135872 ], [ 613335.356778734829277, 4215466.9495191546157 ], [ 613335.356778734829277, 4215465.312287890352309 ], [ 613335.374110404052772, 4215464.429879048839211 ], [ 613335.321453881682828, 4215464.225568743422627 ], [ 613335.657855852157809, 4215464.138560152612627 ], [ 613335.672144556883723, 4215464.194658534601331 ], [ 613336.292336076730862, 4215463.985692064277828 ], [ 613336.356194237829186, 4215461.486546565778553 ], [ 613335.98570224060677, 4215461.494998722337186 ], [ 613335.953640857245773, 4215460.633252783678472 ], [ 613333.52398776775226, 4215461.507115973159671 ], [ 613333.600105990190059, 4215462.444071141071618 ], [ 613332.790545033989474, 4215462.54835803154856 ], [ 613332.82172439864371, 4215465.245325122028589 ], [ 613332.127928409841843, 4215467.075067332945764 ], [ 613332.286824096809141, 4215480.806960054673254 ], [ 613331.978690828778781, 4215481.92890898603946 ], [ 613332.002284831600264, 4215489.085697405971587 ], [ 613332.078667659778148, 4215489.897758876904845 ], [ 613332.115183238172904, 4215492.449356361292303 ], [ 613331.677393206395209, 4215494.980833224952221 ], [ 613330.861393512925133, 4215501.755872160196304 ], [ 613330.968999806558713, 4215504.085955834947526 ], [ 613330.604681940865703, 4215506.898728683590889 ], [ 613330.488740569562651, 4215507.882095913402736 ], [ 613330.008304928778671, 4215508.726806643418968 ], [ 613329.96164613426663, 4215514.944395959377289 ], [ 613330.72300476313103, 4215521.700342743657529 ], [ 613330.943421261268668, 4215523.611390207894146 ], [ 613331.533668242860585, 4215526.150253360159695 ], [ 613331.580900349654257, 4215526.797796978615224 ], [ 613331.453007623553276, 4215529.385746212676167 ], [ 613331.44070346117951, 4215529.889771471731365 ], [ 613331.394970786408521, 4215532.114595884457231 ], [ 613331.440394754637964, 4215532.712361537851393 ], [ 613331.707029038108885, 4215534.820576113648713 ], [ 613331.817325489246286, 4215539.511747169308364 ], [ 613331.861602832912467, 4215541.154719169251621 ], [ 613334.654824072145857, 4215540.957608154974878 ] ] ] } }
]
}
